id,name,description,volunteer_functions,phone,address,latitude,longitude,logo,website,vk_link,telegram_link,other_social,created_at,updated_at,is_approved,is_active,city_id,owner_id,has_pending_changes
1,"–û–û –¢–û–° –ê–ì–û ""12–∞ –º–∏–∫—Ä–æ—Ä–∞–π–æ–Ω""","–ü–æ–≤—ã—à–µ–Ω–∏–µ –∫–∞—á–µ—Å—Ç–≤–∞ –∂–∏–∑–Ω–∏ –∂–∏—Ç–µ–ª–µ–π 12–∞ –º–∏–∫—Ä–æ—Ä–∞–π–æ–Ω–∞ –≥.–ê–Ω–≥–∞—Ä—Å–∫–∞ –ò—Ä–∫—É—Ç—Å–∫–æ–π –æ–±–ª–∞—Å—Ç–∏ ( –ë–ª–∞–≥–æ—É—Å—Ç—Ä–æ–π—Å—Ç–≤–æ –∏ —Å–æ–¥–µ—Ä–∂–∞–Ω–∏–∏ —Ç–µ—Ä—Ä–∏—Ç–æ—Ä–∏–∏, –æ—Ä–≥–∞–Ω–∏–∑–∞—Ü–∏—è –∫—É–ª—å—Ç—É—Ä–Ω—ã—Ö, —Å–ø–æ—Ä—Ç–∏–≤–Ω—ã—Ö –∏ —Å–æ—Ü–∏–∞–ª—å–Ω–æ –∑–Ω–∞—á–∏–º—ã—Ö –º–µ—Ä–æ–ø—Ä–∏—è—Ç–∏–π, –≤–∑–∞–∏–º–æ–¥–µ–π—Å—Ç–≤–∏–µ —Å –æ—Ä–≥–∞–Ω–∞–º–∏ –≤–ª–∞—Å—Ç–∏ –¥–ª—è —É—á—ë—Ç–∞ –º–Ω–µ–Ω–∏—è –∂–∏—Ç–µ–ª–µ–π, —ç–∫–æ–ª–æ–≥–∏–∏ –∏ —Å–æ—Ü–∏–∞–ª—å–Ω–æ–π –ø–æ–º–æ—â–∏). 
–¶–µ–ª–µ–≤–∞—è –∞—É–¥–∏—Ç–æ—Ä–∏—è:
–ñ–∏—Ç–µ–ª–∏ –º–∏–∫—Ä–æ—Ä–∞–π–æ–Ω–∞ 12–ê (—Å–æ—Ü–∏–∞–ª—å–Ω–æ –Ω–µ–∑–∞—â–∏—â–µ–Ω–Ω—ã–µ –≥—Ä—É–ø–ø—ã: –ø–µ–Ω—Å–∏–æ–Ω–µ—Ä—ã, –∏–Ω–≤–∞–ª–∏–¥—ã, –º–Ω–æ–≥–æ–¥–µ—Ç–Ω—ã–µ —Å–µ–º—å–∏, –º–∞–ª–æ–∏–º—É—â–∏–µ 
–∏ –¥.—Ä. –¥–µ—Ç–∏ –∏ –º–æ–ª–æ–¥–µ–∂—å, —Å–æ–±—Å—Ç–≤–µ–Ω–Ω–∏–∫–∏ –∂–∏–ª—å—è.)","–ü–æ–≤—ã—à–µ–Ω–∏–µ –∫–∞—á–µ—Å—Ç–≤–∞ –∂–∏–∑–Ω–∏ –∂–∏—Ç–µ–ª–µ–π 12–∞ –º–∏–∫—Ä–æ—Ä–∞–π–æ–Ω–∞ –≥.–ê–Ω–≥–∞—Ä—Å–∫–∞ –ò—Ä–∫—É—Ç—Å–∫–æ–π –æ–±–ª–∞—Å—Ç–∏ ( –ë–ª–∞–≥–æ—É—Å—Ç—Ä–æ–π—Å—Ç–≤–æ –∏ —Å–æ–¥–µ—Ä–∂–∞–Ω–∏–∏ —Ç–µ—Ä—Ä–∏—Ç–æ—Ä–∏–∏, –æ—Ä–≥–∞–Ω–∏–∑–∞—Ü–∏—è –∫—É–ª—å—Ç—É—Ä–Ω—ã—Ö, —Å–ø–æ—Ä—Ç–∏–≤–Ω—ã—Ö –∏ —Å–æ—Ü–∏–∞–ª—å–Ω–æ –∑–Ω–∞—á–∏–º—ã—Ö –º–µ—Ä–æ–ø—Ä–∏—è—Ç–∏–π, –≤–∑–∞–∏–º–æ–¥–µ–π—Å—Ç–≤–∏–µ —Å –æ—Ä–≥–∞–Ω–∞–º–∏ –≤–ª–∞—Å—Ç–∏ –¥–ª—è —É—á—ë—Ç–∞ –º–Ω–µ–Ω–∏—è –∂–∏—Ç–µ–ª–µ–π, —ç–∫–æ–ª–æ–≥–∏–∏ –∏ —Å–æ—Ü–∏–∞–ª—å–Ω–æ–π –ø–æ–º–æ—â–∏).",+7 (950) 114-81-49,,NULL,NULL,,,https://vk.com/id746471055,,,2025-11-15 07:54:19.667357,2025-11-15 07:54:19.667367,1,1,1,2,0
2,–ü–ª–∞—Ç—Ñ–æ—Ä–º–∞ –¥–æ–±—Ä—ã—Ö –¥–µ–ª,"–ë–ª–∞–≥–æ—Ç–≤–æ—Ä–∏—Ç–µ–ª—å–Ω—ã–π –æ–±—â–µ—Å—Ç–≤–µ–Ω–Ω–æ –ø–æ–ª–µ–∑–Ω—ã–π —Ñ–æ–Ω–¥ –ø–æ–º–æ—â–∏ —Å–æ—Ü–∏–∞–ª—å–Ω–æ –Ω–µ–∑–∞—â–∏—â–µ–Ω–Ω—ã–º —Å–ª–æ—è–º –Ω–∞—Å–µ–ª–µ–Ω–∏—è ¬´–ü–ª–∞—Ç—Ñ–æ—Ä–º–∞ –¥–æ–±—Ä—ã—Ö –¥–µ–ª¬ª
–û—Å–Ω–æ–≤–Ω–æ–π –≤–∏–¥ –¥–µ—è—Ç–µ–ª—å–Ω–æ—Å—Ç–∏ (–û–ö–í–≠–î) 64.99
–¶–µ–ª–µ–≤–∞—è –∞—É–¥–∏—Ç–æ—Ä–∏—è: –º–æ–ª–æ–¥—ã–µ –ª—é–¥–∏ —Å –∏–Ω–≤–∞–ª–∏–¥–Ω–æ—Å—Ç—å—é —Å—Ç–∞—Ä—à–µ 18 –ª–µ—Ç, –≥—Ä–∞–∂–¥–∞–Ω–µ —Å—Ç–∞—Ä—à–µ–≥–æ –≤–æ–∑—Ä–∞—Å—Ç–∞ (–ø–µ–Ω—Å–∏–æ–Ω–Ω–æ–≥–æ)","–ë–ª–∞–≥–æ—Ç–≤–æ—Ä–∏—Ç–µ–ª—å–Ω—ã–π –æ–±—â–µ—Å—Ç–≤–µ–Ω–Ω–æ –ø–æ–ª–µ–∑–Ω—ã–π —Ñ–æ–Ω–¥ –ø–æ–º–æ—â–∏ —Å–æ—Ü–∏–∞–ª—å–Ω–æ –Ω–µ–∑–∞—â–∏—â–µ–Ω–Ω—ã–º —Å–ª–æ—è–º –Ω–∞—Å–µ–ª–µ–Ω–∏—è ¬´–ü–ª–∞—Ç—Ñ–æ—Ä–º–∞ –¥–æ–±—Ä—ã—Ö –¥–µ–ª¬ª
–û—Å–Ω–æ–≤–Ω–æ–π –≤–∏–¥ –¥–µ—è—Ç–µ–ª—å–Ω–æ—Å—Ç–∏ (–û–ö–í–≠–î) 64.99",,,NULL,NULL,,,,,,2025-11-15 07:56:43.918662,2025-11-15 09:19:07.147214,1,1,2,25,0
3,"–ú–ë–£ ""–ú–æ–ª–æ–¥–µ–∂–Ω—ã–π —Ü–µ–Ω—Ç—Ä""","-–ö–æ–Ω—Å—É–ª—å—Ç–∏—Ä–æ–≤–∞–Ω–∏–µ –∏ —Ä–µ–≥–∏—Å—Ç—Ä–∞—Ü–∏—è –Ω–∞ –ø–ª–æ—â–∞–¥–∫–µ ¬´–î–æ–±—Ä–æ.–†–§¬ª
-–ü—Ä–æ–≤–µ–¥–µ–Ω–∏–µ ""–®–∫–æ–ª—ã –≤–æ–ª–æ–Ω—Ç–µ—Ä–æ–≤""
-–§–æ—Ä–º–∏—Ä–æ–≤–∞–Ω–∏–µ –∏ —Å–æ–ø—Ä–æ–≤–æ–∂–¥–µ–Ω–∏–µ –≤–æ–ª–æ–Ω—Ç–µ—Ä—Å–∫–∏—Ö –∫–æ—Ä–ø—É—Å–æ–≤ (–Ω–∞–ø—Ä–∏–º–µ—Ä, –Ω–∞ –æ–±—â–µ–≥–æ—Ä–æ–¥—Å–∫–∏—Ö –º–µ—Ä–æ–ø—Ä–∏—è—Ç–∏—è—Ö, —Ñ–µ–¥–µ—Ä–∞–ª—å–Ω—ã—Ö –ø—Ä–æ–µ–∫—Ç–∞—Ö (–§–æ—Ä–º–∏—Ä–æ–≤–∞–Ω–∏–µ –∫–æ–º—Ñ–æ—Ä—Ç–Ω–æ–π –≥–æ—Ä–æ–¥—Å–∫–æ–π —Å—Ä–µ–¥—ã)
-–ò–Ω—Ñ–æ—Ä–º–∏—Ä–æ–≤–∞–Ω–∏–µ –≥—Ä–∞–∂–¥–∞–Ω –∏ –æ—Ä–≥–∞–Ω–∏–∑–∞—Ç–æ—Ä–æ–≤ –æ —Ä–∞–∑–≤–∏—Ç–∏–∏ –¥–æ–±—Ä–æ–≤–æ–ª—å—á–µ—Å—Ç–≤–∞, –±–ª–∞–≥–æ—Ç–≤–æ—Ä–∏—Ç–µ–ª—å–Ω–æ—Å—Ç–∏ –∏ –≥—Ä–∞–∂–¥–∞–Ω—Å–∫–∏—Ö –∏–Ω–∏—Ü–∏–∞—Ç–∏–≤ (–∏–Ω–¥–∏–≤–∏–¥—É–∞–ª—å–Ω–æ)

–¶–µ–ª–µ–≤–∞—è –∞—É–¥–∏—Ç–æ—Ä–∏—è: –º–æ–ª–æ–¥–µ–∂—å –≤ –≤–æ–∑—Ä–∞—Å—Ç–µ –æ—Ç 14 –¥–æ 35 –ª–µ—Ç","-–ö–æ–Ω—Å—É–ª—å—Ç–∏—Ä–æ–≤–∞–Ω–∏–µ –∏ —Ä–µ–≥–∏—Å—Ç—Ä–∞—Ü–∏—è –Ω–∞ –ø–ª–æ—â–∞–¥–∫–µ ¬´–î–æ–±—Ä–æ.–†–§¬ª
-–ü—Ä–æ–≤–µ–¥–µ–Ω–∏–µ ""–®–∫–æ–ª—ã –≤–æ–ª–æ–Ω—Ç–µ—Ä–æ–≤""
-–§–æ—Ä–º–∏—Ä–æ–≤–∞–Ω–∏–µ –∏ —Å–æ–ø—Ä–æ–≤–æ–∂–¥–µ–Ω–∏–µ –≤–æ–ª–æ–Ω—Ç–µ—Ä—Å–∫–∏—Ö –∫–æ—Ä–ø—É—Å–æ–≤ (–Ω–∞–ø—Ä–∏–º–µ—Ä, –Ω–∞ –æ–±—â–µ–≥–æ—Ä–æ–¥—Å–∫–∏—Ö –º–µ—Ä–æ–ø—Ä–∏—è—Ç–∏—è—Ö, —Ñ–µ–¥–µ—Ä–∞–ª—å–Ω—ã—Ö –ø—Ä–æ–µ–∫—Ç–∞—Ö (–§–æ—Ä–º–∏—Ä–æ–≤–∞–Ω–∏–µ –∫–æ–º—Ñ–æ—Ä—Ç–Ω–æ–π –≥–æ—Ä–æ–¥—Å–∫–æ–π —Å—Ä–µ–¥—ã)
-–ò–Ω—Ñ–æ—Ä–º–∏—Ä–æ–≤–∞–Ω–∏–µ –≥—Ä–∞–∂–¥–∞–Ω –∏ –æ—Ä–≥–∞–Ω–∏–∑–∞—Ç–æ—Ä–æ–≤ –æ —Ä–∞–∑–≤–∏—Ç–∏–∏ –¥–æ–±—Ä–æ–≤–æ–ª—å—á–µ—Å—Ç–≤–∞, –±–ª–∞–≥–æ—Ç–≤–æ—Ä–∏—Ç–µ–ª—å–Ω–æ—Å—Ç–∏ –∏ –≥—Ä–∞–∂–¥–∞–Ω—Å–∫–∏—Ö –∏–Ω–∏—Ü–∏–∞—Ç–∏–≤ (–∏–Ω–¥–∏–≤–∏–¥—É–∞–ª—å–Ω–æ)

–¶–µ–ª–µ–≤–∞—è –∞—É–¥–∏—Ç–æ—Ä–∏—è: –º–æ–ª–æ–¥–µ–∂—å –≤ –≤–æ–∑—Ä–∞—Å—Ç–µ –æ—Ç 14 –¥–æ 35 –ª–µ—Ç",,,58142622.0,52.633619,,,https://vk.com/mcglazov,,,2025-11-15 08:05:41.463631,2025-11-16 06:06:59.989091,1,1,3,3,0
4,"–ö—É–ª—å—Ç—É—Ä–Ω–∞—è –±–∞–∑–∞ ""–ö–æ—Ä–æ–ª–µ–Ω–∫–æ 8"" (–ú–ë–£ ""–¶–ú–∏–¢–û –£–ö–°–∏–ú–ü"")","–†–µ—Å—É—Ä—Å–Ω—ã–π —Ü–µ–Ω—Ç—Ä –ø–æ–º–æ—â–∏ –ù–ö–û –∏ —Å–æ–æ–±—â–µ—Å—Ç–≤–∞–º, —É—á—Ä–µ–∂–¥–µ–Ω–∏—è–º –∫—É–ª—å—Ç—É—Ä—ã, –æ–±—Ä–∞–∑–æ–≤–∞–Ω–∏—è

–¶–µ–ª–µ–≤–∞—è –∞—É–¥–∏—Ç–æ—Ä–∏—è:
–ò–Ω–∏—Ü–∏–∞—Ç–∏–≤–Ω—ã–µ –∂–∏—Ç–µ–ª–∏, —Å–æ–æ–±—â–µ—Å—Ç–≤–∞, –ù–ö–û, —É—á—Ä–µ–∂–¥–µ–Ω–∏—è –≥–æ—Ä–æ–¥–∞","–†–µ—Å—É—Ä—Å–Ω—ã–π —Ü–µ–Ω—Ç—Ä –ø–æ–º–æ—â–∏ –ù–ö–û –∏ —Å–æ–æ–±—â–µ—Å—Ç–≤–∞–º, —É—á—Ä–µ–∂–¥–µ–Ω–∏—è–º –∫—É–ª—å—Ç—É—Ä—ã, –æ–±—Ä–∞–∑–æ–≤–∞–Ω–∏—è

–¶–µ–ª–µ–≤–∞—è –∞—É–¥–∏—Ç–æ—Ä–∏—è:
–ò–Ω–∏—Ü–∏–∞—Ç–∏–≤–Ω—ã–µ –∂–∏—Ç–µ–ª–∏, —Å–æ–æ–±—â–µ—Å—Ç–≤–∞, –ù–ö–û, —É—á—Ä–µ–∂–¥–µ–Ω–∏—è –≥–æ—Ä–æ–¥–∞",+7 (34141) 6-63-55,"—É–ª–∏—Ü–∞ –ö–æ—Ä–æ–ª–µ–Ω–∫–æ, 8, –ì–ª–∞–∑–æ–≤, –£–¥–º—É—Ä—Ç—Å–∫–∞—è –†–µ—Å–ø—É–±–ª–∏–∫–∞, 427621",58.138365,52.665585,,,https://m.vk.com/korolenko8?from=groups,,,2025-11-15 08:10:15.106423,2025-11-16 06:18:37.927388,1,1,3,4,0
5,"–ö–†–û–ú–û ""–≠–∫–æ–ª–æ–≥–∏—á–µ—Å–∫–∏–π —Å–æ—é–∑""","–û—Ä–≥–∞–Ω–∏–∑–∞—Ü–∏—è –∏ –ø—Ä–æ–≤–µ–¥–µ–Ω–∏–µ —Ä–∞–∑–ª–∏—á–Ω—ã—Ö —ç–∫—Å–∫—É—Ä—Å–∏–π, –∫–æ–Ω–∫—É—Ä—Å–æ–≤, –≤—ã—Å—Ç–∞–≤–æ–∫, –∞–∫—Ü–∏–π, –∫–æ–Ω—Ñ–µ—Ä–µ–Ω—Ü–∏–π, —Ñ–µ—Å—Ç–∏–≤–∞–ª–µ–π, —Å–µ–º–∏–Ω–∞—Ä–æ–≤, –æ–ª–∏–º–ø–∏–∞–¥, –ø–æ—Ö–æ–¥–æ–≤, –∫—Ä—É–≥–ª—ã—Ö —Å—Ç–æ–ª–æ–≤, –∫—É—Ä—Å–æ–≤, —Å–≤—è–∑–∞–Ω–Ω—ã—Ö —Å –º–∏—Ä–æ–º –ø—Ä–∏—Ä–æ–¥—ã. –†–∞–∑—Ä–∞–±–æ—Ç–∫–∞ –∏ —Ä–µ–∞–ª–∏–∑–∞—Ü–∏—è –ø—Ä–æ—Å–≤–µ—Ç–∏—Ç–µ–ª—å–Ω—ã—Ö –ø—Ä–æ–≥—Ä–∞–º–º —ç–∫–æ–ª–æ–≥–æ -–±–∏–æ–ª–æ–≥–∏—á–µ—Å–∫–æ–π, –µ—Å—Ç–µ—Å—Ç–≤–µ–Ω–Ω–æ-–Ω–∞—É—á–Ω–æ–π, –ø—Ä–∏—Ä–æ–¥–æ–æ—Ö—Ä–∞–Ω–Ω–æ–π, —Ç—É—Ä–∏—Å—Ç—Å–∫–æ - –∫—Ä–∞–µ–≤–µ–¥—á–µ—Å–∫–æ–π –Ω–∞–ø—Ä–∞–≤–ª–µ–Ω–Ω–æ—Å—Ç–∏ –¥–ª—è –¥–µ—Ç–µ–π –∏ –≤–∑—Ä–æ—Å–ª—ã—Ö –≤–º–µ—Å—Ç–µ —Å –¥–µ—Ç—å–º–∏. –û–∫–∞–∑–∞–Ω–∏–µ –ø—Ä–∞–∫—Ç–∏—á–µ—Å–∫–æ–π –ø–æ–º–æ—â–∏ –¥—Ä—É–≥–∏–º –æ—Ä–≥–∞–Ω–∏–∑–∞—Ü–∏—è–º –∏ –ø—Ä–∏–≤–ª–µ—á–µ–Ω–∏–µ –º–æ–ª–æ–¥–µ–∂–∏ –∫ —É—á–∞—Å—Ç–∏—é –≤ —ç–∫–æ–ª–æ–≥–∏—á–µ—Å–∫–æ–π —Ä–∞–±–æ—Ç–µ –Ω–∞ —Ç–µ—Ä—Ä–∏—Ç–æ—Ä–∏–∏ –ó–ê–¢–û –ñ–µ–ª–µ–∑–Ω–æ–≥–æ—Ä—Å–∫.

–¶–µ–ª–µ–≤–∞—è –∞—É–¥–∏—Ç–æ—Ä–∏—è:
–ê–∫—Ç–∏–≤–Ω–∞—è –º–æ–ª–æ–¥–µ–∂—å, –∑–∞–∏–Ω—Ç–µ—Ä–µ—Å–æ–≤–∞–Ω–Ω–∞—è –≤ —Ä–µ—à–µ–Ω–∏–∏ —ç–∫–æ–ª–æ–≥–∏—á–µ—Å–∫–∏—Ö –ø—Ä–æ–±–ª–µ–º –∏ –ø—Ä–∏—Ä–æ–¥–æ–æ—Ö—Ä–∞–Ω–Ω–æ–π –¥–µ—è—Ç–µ–ª—å–Ω–æ—Å—Ç–∏, —ç–∫–æ–∞–∫—Ç–∏–≤–∏—Å—Ç—ã.","–û—Ä–≥–∞–Ω–∏–∑–∞—Ü–∏—è –∏ –ø—Ä–æ–≤–µ–¥–µ–Ω–∏–µ —Ä–∞–∑–ª–∏—á–Ω—ã—Ö —ç–∫—Å–∫—É—Ä—Å–∏–π, –∫–æ–Ω–∫—É—Ä—Å–æ–≤, –≤—ã—Å—Ç–∞–≤–æ–∫, –∞–∫—Ü–∏–π, –∫–æ–Ω—Ñ–µ—Ä–µ–Ω—Ü–∏–π, —Ñ–µ—Å—Ç–∏–≤–∞–ª–µ–π, —Å–µ–º–∏–Ω–∞—Ä–æ–≤, –æ–ª–∏–º–ø–∏–∞–¥, –ø–æ—Ö–æ–¥–æ–≤, –∫—Ä—É–≥–ª—ã—Ö —Å—Ç–æ–ª–æ–≤, –∫—É—Ä—Å–æ–≤, —Å–≤—è–∑–∞–Ω–Ω—ã—Ö —Å –º–∏—Ä–æ–º –ø—Ä–∏—Ä–æ–¥—ã. –†–∞–∑—Ä–∞–±–æ—Ç–∫–∞ –∏ —Ä–µ–∞–ª–∏–∑–∞—Ü–∏—è –ø—Ä–æ—Å–≤–µ—Ç–∏—Ç–µ–ª—å–Ω—ã—Ö –ø—Ä–æ–≥—Ä–∞–º–º —ç–∫–æ–ª–æ–≥–æ -–±–∏–æ–ª–æ–≥–∏—á–µ—Å–∫–æ–π, –µ—Å—Ç–µ—Å—Ç–≤–µ–Ω–Ω–æ-–Ω–∞—É—á–Ω–æ–π, –ø—Ä–∏—Ä–æ–¥–æ–æ—Ö—Ä–∞–Ω–Ω–æ–π, —Ç—É—Ä–∏—Å—Ç—Å–∫–æ - –∫—Ä–∞–µ–≤–µ–¥—á–µ—Å–∫–æ–π –Ω–∞–ø—Ä–∞–≤–ª–µ–Ω–Ω–æ—Å—Ç–∏ –¥–ª—è –¥–µ—Ç–µ–π –∏ –≤–∑—Ä–æ—Å–ª—ã—Ö –≤–º–µ—Å—Ç–µ —Å –¥–µ—Ç—å–º–∏. –û–∫–∞–∑–∞–Ω–∏–µ –ø—Ä–∞–∫—Ç–∏—á–µ—Å–∫–æ–π –ø–æ–º–æ—â–∏ –¥—Ä—É–≥–∏–º –æ—Ä–≥–∞–Ω–∏–∑–∞—Ü–∏—è–º –∏ –ø—Ä–∏–≤–ª–µ—á–µ–Ω–∏–µ –º–æ–ª–æ–¥–µ–∂–∏ –∫ —É—á–∞—Å—Ç–∏—é –≤ —ç–∫–æ–ª–æ–≥–∏—á–µ—Å–∫–æ–π —Ä–∞–±–æ—Ç–µ –Ω–∞ —Ç–µ—Ä—Ä–∏—Ç–æ—Ä–∏–∏ –ó–ê–¢–û –ñ–µ–ª–µ–∑–Ω–æ–≥–æ—Ä—Å–∫.",+7 (960) 756-02-30,"–≠–∫–æ—Å–æ—é–∑ –ö—É—Ä—á–∞—Ç–æ–≤–∞, 15, —É–ª –°–∞—è–Ω—Å–∫–∞—è –¥. 9",51.669062,35.656041,,http://—ç–∫–æ—Å–æ—é–∑24.—Ä—Ñ,http://Vk.com/ecosoyuz24,,,2025-11-15 08:14:13.933697,2025-11-16 06:20:00.453622,1,1,4,5,0
6,"–ù–ö–û ""–†–µ–∑–µ—Ä–≤–Ω—ã–π —Ñ–æ–Ω–¥ –ø–æ–¥–¥–µ—Ä–∂–∫–∏ –≥—Ä–∞–∂–¥–∞–Ω—Å–∫–∏—Ö –∏–Ω–∏—Ü–∏–∞—Ç–∏–≤ –≥–æ—Ä–æ–¥–∞ –ó–µ–ª–µ–Ω–æ–≥–æ—Ä—Å–∫–∞""","–¢—Ä–∏ –≥–æ–¥–∞ –Ω–∞–∑–∞–¥ –§–æ–Ω–¥ –ø–ª–∞–Ω–∏—Ä–æ–≤–∞–ª–∏ –∑–∞–∫—Ä—ã–≤–∞—Ç—å. –ü–æ—Ç–æ–º –æ–Ω —Å—Ç–∞–ª –ø–ª–æ—â–∞–¥–∫–æ–π –ø–æ —Å–±–æ—Ä—É —Å—Ä–µ–¥—Å—Ç–≤ –≤ –ø–æ–¥–¥–µ—Ä–∂–∫—É –≤–æ–ª–æ–Ω—Ç–µ—Ä–æ–≤ –°–í–û, 
—Ç.–∫. –¥—Ä—É–≥–∏—Ö —Ñ–æ–Ω–¥–æ–≤ –≤ –≥–æ—Ä–æ–¥–µ –Ω–µ—Ç.

–ù–∞ —Å–µ–≥–æ–¥–Ω—è –ø—Ä–∏–Ω—è—Ç–æ —Ä–µ—à–µ–Ω–∏–µ –æ—Å—Ç–∞–≤–∏—Ç—å –§–æ–Ω–¥ –ø–æ—Å–ª–µ –æ–∫–æ–Ω—á–∞–Ω–∏—è –°–í–û. –û–Ω –±—É–¥–µ—Ç –∑–∞–Ω–∏–º–∞—Ç—å—Å—è —Å–±–æ—Ä–æ–º –ø–æ–∂–µ—Ä—Ç–≤–æ–≤–∞–Ω–∏–π 
–∏ –ø–æ–º–æ—â—å—é –ª—é–¥—è–º –≤ —Ç—è–∂–µ–ª—ã—Ö —Å–∏—Ç—É–∞—Ü–∏—è—Ö (–ø–æ–∂–∞—Ä—ã, –±–æ–ª–µ–∑–Ω–∏ –∏ —Ç.–ø.).

–¶–µ–ª–µ–≤–∞—è –∞—É–¥–∏—Ç–æ—Ä–∏—è:
–ª—é–¥–∏ –≤ —Å–ª–æ–∂–Ω–æ–π –∂–∏–∑–Ω–µ–Ω–Ω–æ–π —Å–∏—Ç—É–∞—Ü–∏–∏","–¢—Ä–∏ –≥–æ–¥–∞ –Ω–∞–∑–∞–¥ –§–æ–Ω–¥ –ø–ª–∞–Ω–∏—Ä–æ–≤–∞–ª–∏ –∑–∞–∫—Ä—ã–≤–∞—Ç—å. –ü–æ—Ç–æ–º –æ–Ω —Å—Ç–∞–ª –ø–ª–æ—â–∞–¥–∫–æ–π –ø–æ —Å–±–æ—Ä—É —Å—Ä–µ–¥—Å—Ç–≤ –≤ –ø–æ–¥–¥–µ—Ä–∂–∫—É –≤–æ–ª–æ–Ω—Ç–µ—Ä–æ–≤ –°–í–û, 
—Ç.–∫. –¥—Ä—É–≥–∏—Ö —Ñ–æ–Ω–¥–æ–≤ –≤ –≥–æ—Ä–æ–¥–µ –Ω–µ—Ç.

–ù–∞ —Å–µ–≥–æ–¥–Ω—è –ø—Ä–∏–Ω—è—Ç–æ —Ä–µ—à–µ–Ω–∏–µ –æ—Å—Ç–∞–≤–∏—Ç—å –§–æ–Ω–¥ –ø–æ—Å–ª–µ –æ–∫–æ–Ω—á–∞–Ω–∏—è –°–í–û. –û–Ω –±—É–¥–µ—Ç –∑–∞–Ω–∏–º–∞—Ç—å—Å—è —Å–±–æ—Ä–æ–º –ø–æ–∂–µ—Ä—Ç–≤–æ–≤–∞–Ω–∏–π 
–∏ –ø–æ–º–æ—â—å—é –ª—é–¥—è–º –≤ —Ç—è–∂–µ–ª—ã—Ö —Å–∏—Ç—É–∞—Ü–∏—è—Ö (–ø–æ–∂–∞—Ä—ã, –±–æ–ª–µ–∑–Ω–∏ –∏ —Ç.–ø.).",+7 (8172) 75-61-37,"–°–æ–≤–µ—Ç—Å–∫–∏–π –ø—Ä–æ—Å–ø., 35–ê, –í–æ–ª–æ–≥–¥–∞",59.213689,39.902913,,http://—Ñ–æ–Ω–¥-—Å–∏—è–Ω–∏–µ.—Ä—Ñ/,https://vk.com/club206489451?from=groups,,,2025-11-15 08:20:54.863597,2025-11-16 06:20:27.011161,1,1,5,7,0
7,"–ê–ù–û ""–ö–ª—É–± –∫–æ–º–ø—å—é—Ç–µ—Ä–Ω–æ–≥–æ —Å–ø–æ—Ä—Ç–∞ –∏ —Ñ–∏–¥–∂–∏—Ç–∞–ª-—Å–ø–æ—Ä—Ç–∞ ""–ö–∏–±–µ—Ä-–∞—Ç–æ–º""",–ê–≤—Ç–æ–Ω–æ–º–Ω–∞—è –Ω–µ–∫–æ–º–º–µ—Ä—á–µ—Å–∫–∞—è –æ—Ä–≥–∞–Ω–∏–∑–∞—Ü–∏—è ¬´–ö–ª—É–± –∫–æ–º–ø—å—é—Ç–µ—Ä–Ω–æ–≥–æ —Å–ø–æ—Ä—Ç–∞ –∏ —Ñ–∏–¥–∂–∏—Ç–∞–ª-—Å–ø–æ—Ä—Ç–∞ ¬´–ö–∏–±–µ—Ä-–∞—Ç–æ–º¬ª –≤ –ó–ê–¢–û –≥. –ó–µ–ª–µ–Ω–æ–≥–æ—Ä—Å–∫ –ö—Ä–∞—Å–Ω–æ—è—Ä—Å–∫–æ–≥–æ –∫—Ä–∞—è,–ê–≤—Ç–æ–Ω–æ–º–Ω–∞—è –Ω–µ–∫–æ–º–º–µ—Ä—á–µ—Å–∫–∞—è –æ—Ä–≥–∞–Ω–∏–∑–∞—Ü–∏—è ¬´–ö–ª—É–± –∫–æ–º–ø—å—é—Ç–µ—Ä–Ω–æ–≥–æ —Å–ø–æ—Ä—Ç–∞ –∏ —Ñ–∏–¥–∂–∏—Ç–∞–ª-—Å–ø–æ—Ä—Ç–∞ ¬´–ö–∏–±–µ—Ä-–∞—Ç–æ–º¬ª –≤ –ó–ê–¢–û –≥. –ó–µ–ª–µ–Ω–æ–≥–æ—Ä—Å–∫ –ö—Ä–∞—Å–Ω–æ—è—Ä—Å–∫–æ–≥–æ –∫—Ä–∞—è,+7 (913) 594-36-25,,NULL,NULL,,,https://vk.com/cyberatom_zlk24,,https://discord.gg/sK7bDWGXbp,2025-11-15 08:24:12.568757,2025-11-15 09:19:15.703929,1,1,5,8,0
8,"–ê–ù–û –†–ê–ó–í–ò–í–ê–Æ–©–ò–ô –¶–ï–ù–¢–† ""–°–û–õ–ù–ï–ß–ù–´–ô –ì–û–†–û–î""","–û–∫–∞–∑–∞–Ω–∏–µ –ø—Å–∏—Ö–æ–ª–æ–≥–æ-–ø–µ–¥–∞–≥–æ–≥–∏—á–µ—Å–∫–æ–π –ø–æ–º–æ—â–∏ —Å–µ–º—å—è–º —Å –¥–µ—Ç—å–º–∏, –≤ —Ç–æ–º —á–∏—Å–ª–µ —Å –∏–Ω–≤–∞–ª–∏–¥–Ω–æ—Å—Ç—å—é –∏ –û–í–ó

–¶–µ–ª–µ–≤–∞—è –∞—É–¥–∏—Ç–æ—Ä–∏—è:
–°–µ–º—å–∏ —Å –¥–µ—Ç—å–º–∏ –æ—Ç —Ä–æ–∂–¥–µ–Ω–∏—è –¥–æ 18 –ª–µ—Ç","–û–∫–∞–∑–∞–Ω–∏–µ –ø—Å–∏—Ö–æ–ª–æ–≥–æ-–ø–µ–¥–∞–≥–æ–≥–∏—á–µ—Å–∫–æ–π –ø–æ–º–æ—â–∏ —Å–µ–º—å—è–º —Å –¥–µ—Ç—å–º–∏, –≤ —Ç–æ–º —á–∏—Å–ª–µ —Å –∏–Ω–≤–∞–ª–∏–¥–Ω–æ—Å—Ç—å—é –∏ –û–í–ó

–¶–µ–ª–µ–≤–∞—è –∞—É–¥–∏—Ç–æ—Ä–∏—è:
–°–µ–º—å–∏ —Å –¥–µ—Ç—å–º–∏ –æ—Ç —Ä–æ–∂–¥–µ–Ω–∏—è –¥–æ 18 –ª–µ—Ç",89135521828,"–ú–∏—Ä–∞ 16–±, –ó–µ–ª–µ–Ω–æ–≥–æ—Ä—Å–∫",56.109806,94.86139,,http://89138365538.tilda.ws/,https://vk.com/sunny_gorod,,http://Lipatova_3005@mail.ru,2025-11-15 08:28:28.202118,2025-11-16 06:22:23.293614,1,1,5,9,0
9,–ê–ù–û –ö–†–¶–†–ú–°–ò–ì –ï–õ–ï–ù–´ –ñ–ò–í–ê–ï–í–û–ô,"–ù–∞—à–∞ —Ü–µ–ª—å ‚Äî —Å–æ–∑–¥–∞–≤–∞—Ç—å –ø—Ä–æ—Å—Ç—Ä–∞–Ω—Å—Ç–≤–æ, –≥–¥–µ –∫–∞–∂–¥—ã–π –Ω–∞–π–¥–µ—Ç –ø–æ–¥–¥–µ—Ä–∂–∫—É, –≤–¥–æ—Ö–Ω–æ–≤–µ–Ω–∏–µ –∏ –≤–æ–∑–º–æ–∂–Ω–æ—Å—Ç–∏ –¥–ª—è —Ä–æ—Å—Ç–∞. –ú—ã –æ–±—ä–µ–¥–∏–Ω—è–µ–º –ª—é–¥–µ–π, –ø–æ–º–æ–≥–∞–µ–º –≤–æ–ø–ª–æ—â–∞—Ç—å –∏—Ö —É—Å—Ç—Ä–µ–º–ª–µ–Ω–∏—è –≤ –∂–∏–∑–Ω—å –∏ –¥–µ–ª–∞–µ–º –º–∏—Ä –≤–æ–∫—Ä—É–≥ –ª—É—á—à–µ ‚Äî —à–∞–≥ –∑–∞ —à–∞–≥–æ–º, –æ—Ç –ª–æ–∫–∞–ª—å–Ω—ã—Ö –∏–Ω–∏—Ü–∏–∞—Ç–∏–≤ –¥–æ –º–∞—Å—à—Ç–∞–±–Ω—ã—Ö –∏–∑–º–µ–Ω–µ–Ω–∏–π.

–ù–∞—à–∏ –ø—Ä–∏–Ω—Ü–∏–ø—ã:
üå± –õ—é–¥–∏ –≤–∞–∂–Ω–µ–µ –≤—Å–µ–≥–æ ‚Äì –º—ã —Ü–µ–Ω–∏–º –∏–Ω–¥–∏–≤–∏–¥—É–∞–ª—å–Ω–æ—Å—Ç—å –∏ –≤–µ—Ä–∏–º –≤ —Å–∏–ª—É —Å–æ–æ–±—â–µ—Å—Ç–≤.
üöÄ –ú–µ—á—Ç—ã —Å—Ç–∞–Ω–æ–≤—è—Ç—Å—è —Ä–µ–∞–ª—å–Ω–æ—Å—Ç—å—é ‚Äì –≤–º–µ—Å—Ç–µ –º—ã –Ω–∞—Ö–æ–¥–∏–º —Ä–µ—Å—É—Ä—Å—ã, –∑–Ω–∞–Ω–∏—è –∏ –µ–¥–∏–Ω–æ–º—ã—à–ª–µ–Ω–Ω–∏–∫–æ–≤.
üí° –î–µ–π—Å—Ç–≤–∏—è –º–µ–Ω—è—é—Ç –∂–∏–∑–Ω—å ‚Äì –ø–æ–¥–¥–µ—Ä–∂–∏–≤–∞–µ–º –≥—Ä–∞–∂–¥–∞–Ω—Å–∫–∏–µ –∏–Ω–∏—Ü–∏–∞—Ç–∏–≤—ã –∏ –¥–æ–±—Ä–æ–≤–æ–ª—å—á–µ—Å—Ç–≤–æ.
üåç –°–∏–ª–∞ ‚Äì –≤ –ª–æ–∫–∞–ª—å–Ω–æ–º ‚Äì —Ä–∞–∑–≤–∏–≤–∞–µ–º –º–µ—Å—Ç–Ω—ã–µ –ø—Ä–æ–µ–∫—Ç—ã, –∫–æ—Ç–æ—Ä—ã–µ —Å–æ–∑–¥–∞—é—Ç –≥–ª–æ–±–∞–ª—å–Ω—ã–π —ç—Ñ—Ñ–µ–∫—Ç.

–ú—ã –Ω–µ –ø—Ä–æ—Å—Ç–æ –≥–æ–≤–æ—Ä–∏–º ‚Äî –º—ã —Å–æ–∑–¥–∞–µ–º —Å–≤—è–∑–∏, –¥–∞–µ–º –∏–Ω—Å—Ç—Ä—É–º–µ–Ω—Ç—ã –∏ –≤–¥–æ—Ö–Ω–æ–≤–ª—è–µ–º –Ω–∞ –ø–µ—Ä–µ–º–µ–Ω—ã. –ü—Ä–∏—Å–æ–µ–¥–∏–Ω—è–π—Ç–µ—Å—å! üíõ","–ù–∞—à–∞ —Ü–µ–ª—å ‚Äî —Å–æ–∑–¥–∞–≤–∞—Ç—å –ø—Ä–æ—Å—Ç—Ä–∞–Ω—Å—Ç–≤–æ, –≥–¥–µ –∫–∞–∂–¥—ã–π –Ω–∞–π–¥–µ—Ç –ø–æ–¥–¥–µ—Ä–∂–∫—É, –≤–¥–æ—Ö–Ω–æ–≤–µ–Ω–∏–µ –∏ –≤–æ–∑–º–æ–∂–Ω–æ—Å—Ç–∏ –¥–ª—è —Ä–æ—Å—Ç–∞. –ú—ã –æ–±—ä–µ–¥–∏–Ω—è–µ–º –ª—é–¥–µ–π, –ø–æ–º–æ–≥–∞–µ–º –≤–æ–ø–ª–æ—â–∞—Ç—å –∏—Ö —É—Å—Ç—Ä–µ–º–ª–µ–Ω–∏—è –≤ –∂–∏–∑–Ω—å –∏ –¥–µ–ª–∞–µ–º –º–∏—Ä –≤–æ–∫—Ä—É–≥ –ª—É—á—à–µ ‚Äî —à–∞–≥ –∑–∞ —à–∞–≥–æ–º, –æ—Ç –ª–æ–∫–∞–ª—å–Ω—ã—Ö –∏–Ω–∏—Ü–∏–∞—Ç–∏–≤ –¥–æ –º–∞—Å—à—Ç–∞–±–Ω—ã—Ö –∏–∑–º–µ–Ω–µ–Ω–∏–π.

–ù–∞—à–∏ –ø—Ä–∏–Ω—Ü–∏–ø—ã:
üå± –õ—é–¥–∏ –≤–∞–∂–Ω–µ–µ –≤—Å–µ–≥–æ ‚Äì –º—ã —Ü–µ–Ω–∏–º –∏–Ω–¥–∏–≤–∏–¥—É–∞–ª—å–Ω–æ—Å—Ç—å –∏ –≤–µ—Ä–∏–º –≤ —Å–∏–ª—É —Å–æ–æ–±—â–µ—Å—Ç–≤.
üöÄ –ú–µ—á—Ç—ã —Å—Ç–∞–Ω–æ–≤—è—Ç—Å—è —Ä–µ–∞–ª—å–Ω–æ—Å—Ç—å—é ‚Äì –≤–º–µ—Å—Ç–µ –º—ã –Ω–∞—Ö–æ–¥–∏–º —Ä–µ—Å—É—Ä—Å—ã, –∑–Ω–∞–Ω–∏—è –∏ –µ–¥–∏–Ω–æ–º—ã—à–ª–µ–Ω–Ω–∏–∫–æ–≤.
üí° –î–µ–π—Å—Ç–≤–∏—è –º–µ–Ω—è—é—Ç –∂–∏–∑–Ω—å ‚Äì –ø–æ–¥–¥–µ—Ä–∂–∏–≤–∞–µ–º –≥—Ä–∞–∂–¥–∞–Ω—Å–∫–∏–µ –∏–Ω–∏—Ü–∏–∞—Ç–∏–≤—ã –∏ –¥–æ–±—Ä–æ–≤–æ–ª—å—á–µ—Å—Ç–≤–æ.
üåç –°–∏–ª–∞ ‚Äì –≤ –ª–æ–∫–∞–ª—å–Ω–æ–º ‚Äì —Ä–∞–∑–≤–∏–≤–∞–µ–º –º–µ—Å—Ç–Ω—ã–µ –ø—Ä–æ–µ–∫—Ç—ã, –∫–æ—Ç–æ—Ä—ã–µ —Å–æ–∑–¥–∞—é—Ç –≥–ª–æ–±–∞–ª—å–Ω—ã–π —ç—Ñ—Ñ–µ–∫—Ç.

–ú—ã –Ω–µ –ø—Ä–æ—Å—Ç–æ –≥–æ–≤–æ—Ä–∏–º ‚Äî –º—ã —Å–æ–∑–¥–∞–µ–º —Å–≤—è–∑–∏, –¥–∞–µ–º –∏–Ω—Å—Ç—Ä—É–º–µ–Ω—Ç—ã –∏ –≤–¥–æ—Ö–Ω–æ–≤–ª—è–µ–º –Ω–∞ –ø–µ—Ä–µ–º–µ–Ω—ã. –ü—Ä–∏—Å–æ–µ–¥–∏–Ω—è–π—Ç–µ—Å—å! üíõ",+7 (902) 918-17-97,"–ú–∏—Ä–∞,68–ê, –ó–µ–ª–µ–Ω–æ–≥–æ—Ä—Å–∫",56.109014,94.617411,,,https://vk.com/elenazivaeva,,http://89029181797@yandex.ru,2025-11-15 08:30:59.129998,2025-11-16 06:22:41.005585,1,1,5,10,0
10,"–ê–ù–û –°–° ""–õ–∏–Ω–∏—è –∂–∏–∑–Ω–∏""","–ü—Ä–µ–¥–æ—Å—Ç–∞–≤–ª–µ–Ω–∏–µ —Å–æ—Ü–∏–∞–ª—å–Ω—ã—Ö —É—Å–ª—É–≥ –Ω–∞ –¥–æ–º—É

–¶–µ–ª–µ–≤–∞—è –∞—É–¥–∏—Ç–æ—Ä–∏—è:
–ü–µ–Ω—Å–∏–æ–Ω–µ—Ä—ã, –∏–Ω–≤–∞–ª–∏–¥—ã, —Å–µ–º—å–∏ —Å –¥–µ—Ç—å–º–∏ –∏–Ω–≤–∞–ª–∏–¥–∞–º–∏, –ª—é–¥–∏ –æ–∫–∞–∑–∞–≤—à–∏—Å—å –≤ —Ç—Ä—É–¥–Ω–æ–π –∂–∏–∑–Ω–µ–Ω–Ω–æ–π —Å–∏—Ç—É–∞—Ü–∏–∏","–ü—Ä–µ–¥–æ—Å—Ç–∞–≤–ª–µ–Ω–∏–µ —Å–æ—Ü–∏–∞–ª—å–Ω—ã—Ö —É—Å–ª—É–≥ –Ω–∞ –¥–æ–º—É

–¶–µ–ª–µ–≤–∞—è –∞—É–¥–∏—Ç–æ—Ä–∏—è:
–ü–µ–Ω—Å–∏–æ–Ω–µ—Ä—ã, –∏–Ω–≤–∞–ª–∏–¥—ã, —Å–µ–º—å–∏ —Å –¥–µ—Ç—å–º–∏ –∏–Ω–≤–∞–ª–∏–¥–∞–º–∏, –ª—é–¥–∏ –æ–∫–∞–∑–∞–≤—à–∏—Å—å –≤ —Ç—Ä—É–¥–Ω–æ–π –∂–∏–∑–Ω–µ–Ω–Ω–æ–π —Å–∏—Ç—É–∞—Ü–∏–∏",8-913-552-30-28,"–ú–∏—Ä–∞, –¥.16–ë, –æ—Ñ–∏—Å 2-2",56.111057,94.591656,,http://liniyazhiznizel.ru,https://m.vk.com/liniya_zhizni_zel,,https://ok.ru/group/61396158775366,2025-11-15 08:37:31.301603,2025-11-16 06:06:59.987217,1,1,5,11,0
11,–ê–ù–û –¶–µ–Ω—Ç—Ä –¥–æ—Å—É–≥–∞ –∏ —Ä–∞–∑–≤–∏—Ç–∏—è –¥–µ—Ç–µ–π,"–ü—Ä–æ–≤–µ–¥–µ–Ω–∏–µ –º–µ—Ä–æ–ø—Ä–∏—è—Ç–∏–π, –º–∞—Å—Ç–µ—Ä-–∫–ª–∞—Å—Å–æ–≤, —Ä–∞–∑–≤–ª–µ–∫–∞—Ç–µ–ª—å–Ω—ã—Ö –∏ —Ä–∞–∑–≤–∏–≤–∞—é—â–∏—Ö –ø—Ä–æ–≥—Ä–∞–º–º –¥–ª—è –¥–µ—Ç–µ–π –∏ –ø–æ–¥—Ä–æ—Å—Ç–∫–æ–≤. –≥.–ó–µ–ª–µ–Ω–æ–≥–æ—Ä—Å–∫ –ö—Ä–∞—Å–Ω–æ—è—Ä—Å–∫–∏–π –∫—Ä–∞–π
–ù–∞—à–∞ –º–∏—Å—Å–∏—è: –ø–æ–º–æ—á—å –†–µ–±—ë–Ω–∫—É —Å–µ–≥–æ–¥–Ω—è –ø—Ä–∏–æ–±—Ä–µ—Å—Ç–∏ —Ç–µ –Ω–µ–æ–±—Ö–æ–¥–∏–º—ã–µ –ª–∏—á–Ω–æ—Å—Ç–Ω—ã–µ –∫–∞—á–µ—Å—Ç–≤–∞ –∏ –Ω–∞–≤—ã–∫–∏, –∫–æ—Ç–æ—Ä—ã–µ —Å–¥–µ–ª–∞—é—Ç –µ–≥–æ –£—Å–ø–µ—à–Ω—ã–º –í–∑—Ä–æ—Å–ª—ã–º –∑–∞–≤—Ç—Ä–∞!

‚úÖ –ü—Ä–æ–≤–æ–¥–∏–º –º–µ—Ä–æ–ø—Ä–∏—è—Ç–∏—è, –ø—Ä–∞–∑–¥–Ω–∏–∫–∏, –∫–≤–µ—Å—Ç—ã –¥–ª—è –¥–µ—Ç–µ–π –∏ –ø–æ–¥—Ä–æ—Å—Ç–∫–æ–≤;
‚úÖ –û—Ä–≥–∞–Ω–∏–∑—É–µ–º —Ä–∞–∑–ª–∏—á–Ω—ã–µ –º–∞—Å—Ç–µ—Ä-–∫–ª–∞—Å—Å—ã (–ø—Ä–∏–≥–ª–∞—à–∞–µ–º –ø–µ–¥–∞–≥–æ–≥–æ–≤, –º–∞—Å—Ç–µ—Ä–æ–≤ –∏ –ø—Ä–æ—Å—Ç–æ —Ç–≤–æ—Ä—á–µ—Å–∫–∏—Ö –ª—é–¥–µ–π –¥–ª—è —Å–æ—Ç—Ä—É–¥–Ω–∏—á–µ—Å—Ç–≤–∞);
‚úÖ –û–∫–∞–∑—ã–≤–∞–µ–º —É—Å–ª—É–≥–∏ –ø–æ –æ—Ä–≥–∞–Ω–∏–∑–∞—Ü–∏–∏ –∏ –ø—Ä–æ–≤–µ–¥–µ–Ω–∏—é –∏–≥—Ä–æ–≤—ã—Ö –ø—Ä–æ–≥—Ä–∞–º–º, –ª–µ–∫—Ü–∏–π, –ø—Ä–∞–∫—Ç–∏–∫—É–º–æ–≤, –ø–æ–≥—Ä—É–∂–µ–Ω–∏–π –≤ –ø—Ä–µ–¥–º–µ—Ç –∏ –ø—Ä–æ—á–∏—Ö —Ä–∞–∑–≤–∏–≤–∞—é—â–∏—Ö –º–µ—Ä–æ–ø—Ä–∏—è—Ç–∏–π.","–ü—Ä–æ–≤–µ–¥–µ–Ω–∏–µ –º–µ—Ä–æ–ø—Ä–∏—è—Ç–∏–π, –º–∞—Å—Ç–µ—Ä-–∫–ª–∞—Å—Å–æ–≤, —Ä–∞–∑–≤–ª–µ–∫–∞—Ç–µ–ª—å–Ω—ã—Ö –∏ —Ä–∞–∑–≤–∏–≤–∞—é—â–∏—Ö –ø—Ä–æ–≥—Ä–∞–º–º –¥–ª—è –¥–µ—Ç–µ–π –∏ –ø–æ–¥—Ä–æ—Å—Ç–∫–æ–≤. –≥.–ó–µ–ª–µ–Ω–æ–≥–æ—Ä—Å–∫ –ö—Ä–∞—Å–Ω–æ—è—Ä—Å–∫–∏–π –∫—Ä–∞–π
–ù–∞—à–∞ –º–∏—Å—Å–∏—è: –ø–æ–º–æ—á—å –†–µ–±—ë–Ω–∫—É —Å–µ–≥–æ–¥–Ω—è –ø—Ä–∏–æ–±—Ä–µ—Å—Ç–∏ —Ç–µ –Ω–µ–æ–±—Ö–æ–¥–∏–º—ã–µ –ª–∏—á–Ω–æ—Å—Ç–Ω—ã–µ –∫–∞—á–µ—Å—Ç–≤–∞ –∏ –Ω–∞–≤—ã–∫–∏, –∫–æ—Ç–æ—Ä—ã–µ —Å–¥–µ–ª–∞—é—Ç –µ–≥–æ –£—Å–ø–µ—à–Ω—ã–º –í–∑—Ä–æ—Å–ª—ã–º –∑–∞–≤—Ç—Ä–∞!

‚úÖ –ü—Ä–æ–≤–æ–¥–∏–º –º–µ—Ä–æ–ø—Ä–∏—è—Ç–∏—è, –ø—Ä–∞–∑–¥–Ω–∏–∫–∏, –∫–≤–µ—Å—Ç—ã –¥–ª—è –¥–µ—Ç–µ–π –∏ –ø–æ–¥—Ä–æ—Å—Ç–∫–æ–≤;
‚úÖ –û—Ä–≥–∞–Ω–∏–∑—É–µ–º —Ä–∞–∑–ª–∏—á–Ω—ã–µ –º–∞—Å—Ç–µ—Ä-–∫–ª–∞—Å—Å—ã (–ø—Ä–∏–≥–ª–∞—à–∞–µ–º –ø–µ–¥–∞–≥–æ–≥–æ–≤, –º–∞—Å—Ç–µ—Ä–æ–≤ –∏ –ø—Ä–æ—Å—Ç–æ —Ç–≤–æ—Ä—á–µ—Å–∫–∏—Ö –ª—é–¥–µ–π –¥–ª—è —Å–æ—Ç—Ä—É–¥–Ω–∏—á–µ—Å—Ç–≤–∞);
‚úÖ –û–∫–∞–∑—ã–≤–∞–µ–º —É—Å–ª—É–≥–∏ –ø–æ –æ—Ä–≥–∞–Ω–∏–∑–∞—Ü–∏–∏ –∏ –ø—Ä–æ–≤–µ–¥–µ–Ω–∏—é –∏–≥—Ä–æ–≤—ã—Ö –ø—Ä–æ–≥—Ä–∞–º–º, –ª–µ–∫—Ü–∏–π, –ø—Ä–∞–∫—Ç–∏–∫—É–º–æ–≤, –ø–æ–≥—Ä—É–∂–µ–Ω–∏–π –≤ –ø—Ä–µ–¥–º–µ—Ç –∏ –ø—Ä–æ—á–∏—Ö —Ä–∞–∑–≤–∏–≤–∞—é—â–∏—Ö –º–µ—Ä–æ–ø—Ä–∏—è—Ç–∏–π.",+7 (902) 917-76-95,"–ú–∏—Ä–∞ –¥–æ–º 16–ë, –ó–µ–ª–µ–Ω–æ–≥–æ—Ä—Å–∫",56.111057,94.591656,,https://—Ü–¥—Ä–¥.—Ä—Ñ/,https://vk.com/anocdrdzelenogorsk?from=groups,,,2025-11-15 08:40:11.698988,2025-11-16 06:06:59.988129,1,1,5,12,0
12,"–ê–≤—Ç–æ–Ω–æ–º–Ω–∞—è –Ω–µ–∫–æ–º–º–µ—Ä—á–µ—Å–∫–∞—è –æ—Ä–≥–∞–Ω–∏–∑–∞—Ü–∏—è ""–ö–ª—É–± –∫–æ–º–ø—å—é—Ç–µ—Ä–Ω–æ–≥–æ —Å–ø–æ—Ä—Ç–∞ –∏ —Ñ–∏–¥–∂–∏—Ç–∞–ª-—Å–ø–æ—Ä—Ç–∞ ""–ö–∏–±–µ—Ä-–∞—Ç–æ–º""","–û–ö–í–≠–î 93.12 - –î–µ—è—Ç–µ–ª—å–Ω–æ—Å—Ç—å —Å–ø–æ—Ä—Ç–∏–≤–Ω—ã—Ö –∫–ª—É–±–æ–≤. –ê –µ—Å–ª–∏ –ø–æ —Ñ–∞–∫—Ç—É, —Ç–æ –∑–∞–Ω–∏–º–∞—é—Å—å —Ä–∞–∑–≤–∏—Ç–∏–µ–º –∫–æ–º–ø—å—é—Ç–µ—Ä–Ω–æ–≥–æ —Å–ø–æ—Ä—Ç–∞ –∏ —Ñ–∏–¥–∂–∏—Ç–∞–ª-—Å–ø–æ—Ä—Ç–∞ –≤ –Ω–∞—à–µ–º –≥–æ—Ä–æ–¥–µ, –ø—Ä–æ–≤–µ–¥–µ–Ω–∏–µ–º –º–µ—Ä–æ–ø—Ä–∏—è—Ç–∏–π, —Ç—É—Ä–Ω–∏—Ä–æ–≤ –∏ –ø—Ä–æ—Å–≤–µ—Ç–∏—Ç–µ–ª—å—Å–∫–æ–π —Ä–∞–±–æ—Ç–æ–π –≤ —ç—Ç–æ–π –æ–±–ª–∞—Å—Ç–∏

–¶–µ–ª–µ–≤–∞—è –∞—É–¥–∏—Ç–æ—Ä–∏—è: –ø–æ–¥—Ä–æ—Å—Ç–∫–∏ 12-17 –ª–µ—Ç, –∞ —Ç–∞–∫–∂–µ –∏—Ö —Ä–æ–¥–∏—Ç–µ–ª–∏. –° –ø–µ—Ä–≤—ã–º–∏ –≤–µ–¥–µ–º –Ω–µ–ø–æ—Å—Ä–µ–¥—Å—Ç–≤–µ–Ω–Ω—É—é —Ä–∞–±–æ—Ç—É –ø–æ —Ä–∞–∑–≤–∏—Ç–∏—é –∏—Ö –Ω–∞–≤—ã–∫–æ–≤ –≤ –∫–∏–±–µ—Ä—Å–ø–æ—Ä—Ç–µ –∏ —Ñ–∏–¥–∂–∏—Ç–∞–ª–µ, –∞ —Å–æ –≤—Ç–æ—Ä—ã–º–∏ –≤–µ–¥—É –ø—Ä–æ—Å–≤–µ—Ç–∏—Ç–µ–ª—å—Å–∫—É—é —Ä–∞–±–æ—Ç—É –∏ –ø—Ä–æ—Å—Ç–æ —Ä–∞—Å—Å–∫–∞–∑—ã–≤–∞—é, —á—Ç–æ –∫–∏–±–µ—Ä—Å–ø–æ—Ä—Ç —ç—Ç–æ –Ω–µ –±–µ—Å–∫–æ–Ω—Ç—Ä–æ–ª—å–Ω—ã–π –≥–µ–π–º–∏–Ω–≥ –∏ –Ω–µ –∏–≥—Ä–æ–º–∞–Ω–∏—è, –∞ —Ç–∞–∫–æ–µ –∂–µ —Å–ø–æ—Ä—Ç–∏–≤–Ω–æ–µ –Ω–∞–ø—Ä–∞–≤–ª–µ–Ω–∏–µ, –∫–∞–∫ —Ñ—É—Ç–±–æ–ª, —à–∞—Ö–º–∞—Ç—ã –∏ —Ç–∞–∫ –¥–∞–ª–µ–µ, –æ–Ω —Ç–∞–∫–∂–µ —Ä–∞–∑–≤–∏–≤–∞–µ—Ç –æ–ø—Ä–µ–¥–µ–ª–µ–Ω–Ω—ã–µ –Ω–∞–≤—ã–∫–∏, –∏ –¥–µ—Ç–∏ —Ç–∞–º —Ç–∞–∫–∂–µ –ø–æ–ª—É—á–∞—é—Ç –æ–ø—Ä–µ–¥–µ–ª–µ–Ω–Ω—ã–µ –∑–Ω–∞–Ω–∏—è –∏ –Ω–µ–æ–±—Ö–æ–¥–∏–º—É—é –¥–ª—è –Ω–∏—Ö –≤ –Ω–∞—à–µ –≤—Ä–µ–º—è —Å–æ—Ü–∏–∞–ª–∏–∑–∞—Ü–∏—é.","–û–ö–í–≠–î 93.12 - –î–µ—è—Ç–µ–ª—å–Ω–æ—Å—Ç—å —Å–ø–æ—Ä—Ç–∏–≤–Ω—ã—Ö –∫–ª—É–±–æ–≤. –ê –µ—Å–ª–∏ –ø–æ —Ñ–∞–∫—Ç—É, —Ç–æ –∑–∞–Ω–∏–º–∞—é—Å—å —Ä–∞–∑–≤–∏—Ç–∏–µ–º –∫–æ–º–ø—å—é—Ç–µ—Ä–Ω–æ–≥–æ —Å–ø–æ—Ä—Ç–∞ –∏ —Ñ–∏–¥–∂–∏—Ç–∞–ª-—Å–ø–æ—Ä—Ç–∞ –≤ –Ω–∞—à–µ–º –≥–æ—Ä–æ–¥–µ, –ø—Ä–æ–≤–µ–¥–µ–Ω–∏–µ–º –º–µ—Ä–æ–ø—Ä–∏—è—Ç–∏–π, —Ç—É—Ä–Ω–∏—Ä–æ–≤ –∏ –ø—Ä–æ—Å–≤–µ—Ç–∏—Ç–µ–ª—å—Å–∫–æ–π —Ä–∞–±–æ—Ç–æ–π –≤ —ç—Ç–æ–π –æ–±–ª–∞—Å—Ç–∏

–¶–µ–ª–µ–≤–∞—è –∞—É–¥–∏—Ç–æ—Ä–∏—è: –ø–æ–¥—Ä–æ—Å—Ç–∫–∏ 12-17 –ª–µ—Ç, –∞ —Ç–∞–∫–∂–µ –∏—Ö —Ä–æ–¥–∏—Ç–µ–ª–∏. –° –ø–µ—Ä–≤—ã–º–∏ –≤–µ–¥–µ–º –Ω–µ–ø–æ—Å—Ä–µ–¥—Å—Ç–≤–µ–Ω–Ω—É—é —Ä–∞–±–æ—Ç—É –ø–æ —Ä–∞–∑–≤–∏—Ç–∏—é –∏—Ö –Ω–∞–≤—ã–∫–æ–≤ –≤ –∫–∏–±–µ—Ä—Å–ø–æ—Ä—Ç–µ –∏ —Ñ–∏–¥–∂–∏—Ç–∞–ª–µ, –∞ —Å–æ –≤—Ç–æ—Ä—ã–º–∏ –≤–µ–¥—É –ø—Ä–æ—Å–≤–µ—Ç–∏—Ç–µ–ª—å—Å–∫—É—é —Ä–∞–±–æ—Ç—É –∏ –ø—Ä–æ—Å—Ç–æ —Ä–∞—Å—Å–∫–∞–∑—ã–≤–∞—é, —á—Ç–æ –∫–∏–±–µ—Ä—Å–ø–æ—Ä—Ç —ç—Ç–æ –Ω–µ –±–µ—Å–∫–æ–Ω—Ç—Ä–æ–ª—å–Ω—ã–π –≥–µ–π–º–∏–Ω–≥ –∏ –Ω–µ –∏–≥—Ä–æ–º–∞–Ω–∏—è, –∞ —Ç–∞–∫–æ–µ –∂–µ —Å–ø–æ—Ä—Ç–∏–≤–Ω–æ–µ –Ω–∞–ø—Ä–∞–≤–ª–µ–Ω–∏–µ, –∫–∞–∫ —Ñ—É—Ç–±–æ–ª, —à–∞—Ö–º–∞—Ç—ã –∏ —Ç–∞–∫ –¥–∞–ª–µ–µ, –æ–Ω —Ç–∞–∫–∂–µ —Ä–∞–∑–≤–∏–≤–∞–µ—Ç –æ–ø—Ä–µ–¥–µ–ª–µ–Ω–Ω—ã–µ –Ω–∞–≤—ã–∫–∏, –∏ –¥–µ—Ç–∏ —Ç–∞–º —Ç–∞–∫–∂–µ –ø–æ–ª—É—á–∞—é—Ç –æ–ø—Ä–µ–¥–µ–ª–µ–Ω–Ω—ã–µ –∑–Ω–∞–Ω–∏—è –∏ –Ω–µ–æ–±—Ö–æ–¥–∏–º—É—é –¥–ª—è –Ω–∏—Ö –≤ –Ω–∞—à–µ –≤—Ä–µ–º—è —Å–æ—Ü–∏–∞–ª–∏–∑–∞—Ü–∏—é.",+7 (913) 594-36-25,,NULL,NULL,,,https://vk.com/cyberatom_zlk24,https://t.me/cyberatom_zlk24,https://discord.gg/sK7bDWGXbp,2025-11-15 08:47:44.983892,2025-11-15 09:19:26.188149,1,1,5,13,0
13,–ë–§ ¬´–ü–ª–∞–Ω–µ—Ç–∞ –∫–æ—à–µ–∫¬ª,"–ë–ª–∞–≥–æ—Ç–≤–æ—Ä–∏—Ç–µ–ª—å–Ω—ã–π –§–æ–Ω–¥ ""–ü–ª–∞–Ω–µ—Ç–∞ –ö–æ—à–µ–∫"" ‚Äî —ç—Ç–æ –ø—Ä–æ–µ–∫—Ç –ø–æ–º–æ—â–∏ –±–µ–∑–¥–æ–º–Ω—ã–º –∂–∏–≤–æ—Ç–Ω—ã–º –≤ –ù–∏–∂–Ω–µ–º –ù–æ–≤–≥–æ—Ä–æ–¥–µ!

–ë–ª–∞–≥–æ—Ç–≤–æ—Ä–∏—Ç–µ–ª—å–Ω—ã–π –§–æ–Ω–¥ ""–ü–ª–∞–Ω–µ—Ç–∞ –ö–æ—à–µ–∫"" –≤—Ö–æ–¥–∏—Ç –≤ —Å–æ—Å—Ç–∞–≤ –º–Ω–æ–≥–æ—Ñ—É–Ω–∫—Ü–∏–æ–Ω–∞–ª—å–Ω–æ–≥–æ –¶–µ–Ω—Ç—Ä–∞ –ø–æ–º–æ—â–∏ –∏ —Ä–µ–∞–±–∏–ª–∏—Ç–∞—Ü–∏–∏ –∂–∏–≤–æ—Ç–Ω—ã—Ö. –î–µ—è—Ç–µ–ª—å–Ω–æ—Å—Ç—å –§–æ–Ω–¥–∞ –Ω–∞–ø—Ä–∞–≤–ª–µ–Ω–∞ –Ω–∞ —Å–ø–∞—Å–µ–Ω–∏–µ –∂–∏–≤–æ—Ç–Ω—ã—Ö, –æ–∫–∞–∑–∞–≤—à–∏—Ö—Å—è –≤ —Å–ª–æ–∂–Ω—ã—Ö –∂–∏–∑–Ω–µ–Ω–Ω—ã—Ö —Å–∏—Ç—É–∞—Ü–∏—è, –±—Ä–æ—à–µ–Ω–Ω—ã—Ö –Ω–∞ —É–ª–∏—Ü–µ, –Ω—É–∂–¥–∞—é—â–∏—Ö—Å—è –≤ –≤–µ—Ç–µ—Ä–∏–Ω–∞—Ä–Ω–æ–π –ø–æ–º–æ—â–∏!","–ë–ª–∞–≥–æ—Ç–≤–æ—Ä–∏—Ç–µ–ª—å–Ω—ã–π –§–æ–Ω–¥ ""–ü–ª–∞–Ω–µ—Ç–∞ –ö–æ—à–µ–∫"" ‚Äî —ç—Ç–æ –ø—Ä–æ–µ–∫—Ç –ø–æ–º–æ—â–∏ –±–µ–∑–¥–æ–º–Ω—ã–º –∂–∏–≤–æ—Ç–Ω—ã–º –≤ –ù–∏–∂–Ω–µ–º –ù–æ–≤–≥–æ—Ä–æ–¥–µ!

–ë–ª–∞–≥–æ—Ç–≤–æ—Ä–∏—Ç–µ–ª—å–Ω—ã–π –§–æ–Ω–¥ ""–ü–ª–∞–Ω–µ—Ç–∞ –ö–æ—à–µ–∫"" –≤—Ö–æ–¥–∏—Ç –≤ —Å–æ—Å—Ç–∞–≤ –º–Ω–æ–≥–æ—Ñ—É–Ω–∫—Ü–∏–æ–Ω–∞–ª—å–Ω–æ–≥–æ –¶–µ–Ω—Ç—Ä–∞ –ø–æ–º–æ—â–∏ –∏ —Ä–µ–∞–±–∏–ª–∏—Ç–∞—Ü–∏–∏ –∂–∏–≤–æ—Ç–Ω—ã—Ö. –î–µ—è—Ç–µ–ª—å–Ω–æ—Å—Ç—å –§–æ–Ω–¥–∞ –Ω–∞–ø—Ä–∞–≤–ª–µ–Ω–∞ –Ω–∞ —Å–ø–∞—Å–µ–Ω–∏–µ –∂–∏–≤–æ—Ç–Ω—ã—Ö, –æ–∫–∞–∑–∞–≤—à–∏—Ö—Å—è –≤ —Å–ª–æ–∂–Ω—ã—Ö –∂–∏–∑–Ω–µ–Ω–Ω—ã—Ö —Å–∏—Ç—É–∞—Ü–∏—è, –±—Ä–æ—à–µ–Ω–Ω—ã—Ö –Ω–∞ —É–ª–∏—Ü–µ, –Ω—É–∂–¥–∞—é—â–∏—Ö—Å—è –≤ –≤–µ—Ç–µ—Ä–∏–Ω–∞—Ä–Ω–æ–π –ø–æ–º–æ—â–∏!",+7 (915) 950-71-11,"–î–∞–ª—å–Ω—è—è —É–ª., 8, –ù–∏–∂–Ω–∏–π –ù–æ–≤–≥–æ—Ä–æ–¥",56.313605,43.975423,,https://planetakoshek52.ru/,https://vk.com/planetakosheknn,https://t.me/planetakosheknn,,2025-11-15 08:51:33.708103,2025-11-16 06:28:53.289407,1,1,6,14,0
14,"–ê–ù–û –î–ü–û ""–¢–µ—Ö–Ω–∏—á–µ—Å–∫–∞—è –∞–∫–∞–¥–µ–º–∏—è –†–æ—Å–∞—Ç–æ–º–∞""",–ù–∞ –¥–∞–Ω–Ω—ã–π –º–æ–º–µ–Ω—Ç –ù–ö–û –Ω–µ—Ç. –ù–∞—Ö–æ–¥–∏—Ç—Å—è –Ω–∞ —Å—Ç–∞–¥–∏–∏ —Ñ–æ—Ä–º–∏—Ä–æ–≤–∞–Ω–∏—è –∫–æ–Ω—Ü–µ–ø—Ü–∏–∏ –∏ —Ñ–æ—Ä–º–∞–ª–∏–∑–∞—Ü–∏–∏ –∏–¥–µ–∏.,–ù–∞ –¥–∞–Ω–Ω—ã–π –º–æ–º–µ–Ω—Ç –ù–ö–û –Ω–µ—Ç. –ù–∞—Ö–æ–¥–∏—Ç—Å—è –Ω–∞ —Å—Ç–∞–¥–∏–∏ —Ñ–æ—Ä–º–∏—Ä–æ–≤–∞–Ω–∏—è –∫–æ–Ω—Ü–µ–ø—Ü–∏–∏ –∏ —Ñ–æ—Ä–º–∞–ª–∏–∑–∞—Ü–∏–∏ –∏–¥–µ–∏.,+7 (495) 626-24-74,"—É–ª–∏—Ü–∞ –ö—É—Ä—á–∞—Ç–æ–≤–∞, 21, –û–±–Ω–∏–Ω—Å–∫",55.104448,36.618296,,http://rosatomtech.ru,https://vk.com/rosatomtech,,,2025-11-15 08:55:05.075333,2025-11-16 06:29:23.862337,1,1,7,16,0
15,–ê–ù–û –°–¶–°–ê –ù–ê–®–ò –î–ï–¢–ò,"–û—Å–Ω–æ–≤–Ω–∞—è –¥–µ—è—Ç–µ–ª—å–Ω–æ—Å—Ç—å:
–ü–æ–º–æ—â—å —Å–µ–º—å—è–º –≤–æ—Å–ø–∏—Ç—ã–≤–∞—é—â–∏—Ö –¥–µ—Ç–µ–π —Å –∏–Ω–≤–∞–ª–∏–¥–Ω–æ—Å—Ç—å—é. –û–±—É—á–µ–Ω–∏–µ –Ω–µ–≥–æ–≤–æ—Ä—è—â–∏—Ö –¥–µ—Ç–µ–π –æ–±—â–∞—Ç—å—Å—è –ø—Ä–∏ –ø–æ–º–æ—â–∏ –∞–ª—å—Ç–µ—Ä–Ω–∞—Ç–∏–≤–Ω–æ–π –∫–æ–º–º—É–Ω–∏–∫–∞—Ü–∏–∏. –û—Ç–∫—Ä—ã–≤–∞–µ–º –Ω–æ–≤–æ–µ –Ω–∞–ø—Ä–∞–≤–ª–µ–Ω–∏–µ —Ä–∞–Ω–Ω—è—è –ø–æ–º–æ—â—å –¥–µ—Ç—è–º –¥–æ 3—Ö –ª–µ—Ç, –∏–º–µ—é—â–∏–º —Ç—Ä—É–¥–Ω–æ—Å—Ç–∏ –≤ —Ä–∞–∑–≤–∏—Ç–∏–∏.

–¶–µ–ª–µ–≤–∞—è –∞—É–¥–∏—Ç–æ—Ä–∏—è:
–°–µ–º—å–∏ –≤–æ—Å–ø–∏—Ç—ã–≤–∞—é—â–∏–µ –¥–µ—Ç–µ–π –¥–æ 3—Ö –ª–µ—Ç, –∏–º–µ—é—â–∏–µ —Ç—Ä—É–¥–Ω–æ—Å—Ç–∏ –≤ —Ä–∞–∑–≤–∏—Ç–∏–∏, –ø—Ä–æ–∂–∏–≤–∞—é—â–∏–µ –≤ –û–º—Å–∫–æ–º —Ä–µ–≥–∏–æ–Ω–µ.
–°–µ–º—å–∏ –≤–æ—Å–ø–∏—Ç—ã–≤–∞—é—â–∏–µ –Ω–µ–≥–æ–≤–æ—Ä—è—â–∏—Ö –¥–µ—Ç–µ–π, –Ω—É–∂–¥–∞—é—â–∏—Ö—Å—è –≤ –∞–ª—å—Ç–µ—Ä–Ω–∞—Ç–∏–≤–Ω—ã—Ö —Å–ø–æ—Å–æ–±–∞—Ö –æ–±—â–µ–Ω–∏—è, –ø—Ä–æ–∂–∏–≤–∞—é—â–∏–µ –≤ –≥–æ—Ä–æ–¥–µ –û–º—Å–∫–µ.","–û—Å–Ω–æ–≤–Ω–∞—è –¥–µ—è—Ç–µ–ª—å–Ω–æ—Å—Ç—å:
–ü–æ–º–æ—â—å —Å–µ–º—å—è–º –≤–æ—Å–ø–∏—Ç—ã–≤–∞—é—â–∏—Ö –¥–µ—Ç–µ–π —Å –∏–Ω–≤–∞–ª–∏–¥–Ω–æ—Å—Ç—å—é. –û–±—É—á–µ–Ω–∏–µ –Ω–µ–≥–æ–≤–æ—Ä—è—â–∏—Ö –¥–µ—Ç–µ–π –æ–±—â–∞—Ç—å—Å—è –ø—Ä–∏ –ø–æ–º–æ—â–∏ –∞–ª—å—Ç–µ—Ä–Ω–∞—Ç–∏–≤–Ω–æ–π –∫–æ–º–º—É–Ω–∏–∫–∞—Ü–∏–∏. –û—Ç–∫—Ä—ã–≤–∞–µ–º –Ω–æ–≤–æ–µ –Ω–∞–ø—Ä–∞–≤–ª–µ–Ω–∏–µ —Ä–∞–Ω–Ω—è—è –ø–æ–º–æ—â—å –¥–µ—Ç—è–º –¥–æ 3—Ö –ª–µ—Ç, –∏–º–µ—é—â–∏–º —Ç—Ä—É–¥–Ω–æ—Å—Ç–∏ –≤ —Ä–∞–∑–≤–∏—Ç–∏–∏.

–¶–µ–ª–µ–≤–∞—è –∞—É–¥–∏—Ç–æ—Ä–∏—è:
–°–µ–º—å–∏ –≤–æ—Å–ø–∏—Ç—ã–≤–∞—é—â–∏–µ –¥–µ—Ç–µ–π –¥–æ 3—Ö –ª–µ—Ç, –∏–º–µ—é—â–∏–µ —Ç—Ä—É–¥–Ω–æ—Å—Ç–∏ –≤ —Ä–∞–∑–≤–∏—Ç–∏–∏, –ø—Ä–æ–∂–∏–≤–∞—é—â–∏–µ –≤ –û–º—Å–∫–æ–º —Ä–µ–≥–∏–æ–Ω–µ.
–°–µ–º—å–∏ –≤–æ—Å–ø–∏—Ç—ã–≤–∞—é—â–∏–µ –Ω–µ–≥–æ–≤–æ—Ä—è—â–∏—Ö –¥–µ—Ç–µ–π, –Ω—É–∂–¥–∞—é—â–∏—Ö—Å—è –≤ –∞–ª—å—Ç–µ—Ä–Ω–∞—Ç–∏–≤–Ω—ã—Ö —Å–ø–æ—Å–æ–±–∞—Ö –æ–±—â–µ–Ω–∏—è, –ø—Ä–æ–∂–∏–≤–∞—é—â–∏–µ –≤ –≥–æ—Ä–æ–¥–µ –û–º—Å–∫–µ.",+7 (950) 214-98-98,"1 –ü–æ—Å–µ–ª–∫–æ–≤–∞—è, 3–ê, –û–º—Å–∫",54.94105,73.319656,,http://na-deti.ru,https://vk.com/ndetiomsk,,,2025-11-15 08:57:48.074784,2025-11-16 05:02:20.777151,1,1,8,17,0
16,"–¢–†–û–û ""–í–ü–¶"" –ú–ò–†–ù–´–ô –í–û–ò–ù""","–ê–û ""–°–∏–±–∏—Ä—Å–∫–∏–π —Ö–∏–º–∏—á–µ—Å–∫–∏–π –∫–æ–º–±–∏–Ω–∞—Ç"", –ø—Ä–µ–¥–ø—Ä–∏—è—Ç–∏–µ –¢–æ–ø–ª–∏–≤–Ω–æ–π –∫–æ–º–ø–∞–Ω–∏–∏ –†–æ—Å–∞—Ç–æ–º–∞ ""–¢–í–≠–õ""","–ê–û ""–°–∏–±–∏—Ä—Å–∫–∏–π —Ö–∏–º–∏—á–µ—Å–∫–∏–π –∫–æ–º–±–∏–Ω–∞—Ç"", –ø—Ä–µ–¥–ø—Ä–∏—è—Ç–∏–µ –¢–æ–ø–ª–∏–≤–Ω–æ–π –∫–æ–º–ø–∞–Ω–∏–∏ –†–æ—Å–∞—Ç–æ–º–∞ ""–¢–í–≠–õ""",+7 (382) 354-83-47,—É–ª. –ö—É—Ä—á–∞—Ç–æ–≤–∞ 1 –°–µ–≤–µ—Ä—Å–∫,56.589661,84.902077,,http://atomsib.ru/,,,https://ok.ru/profile/566417452251/statuses/156787104735451,2025-11-15 09:04:17.250755,2025-11-16 06:30:23.373238,1,1,9,18,0
17,–°–ì–û–û –ë–£–ú–ï–†–ê–ù–ì –î–û–ë–†–ê,"–°–Ω–µ–∂–∏–Ω—Å–∫–∞—è –≥–æ—Ä–æ–¥—Å–∫–∞—è –æ–±—â–µ—Å—Ç–≤–µ–Ω–Ω–∞—è –æ—Ä–≥–∞–Ω–∏–∑–∞—Ü–∏—è –ø–æ–º–æ—â–∏ –ª—é–¥—è–º, –Ω–∞—Ö–æ–¥—è—â–∏–º—Å—è –≤ —Ç—Ä—É–¥–Ω–æ–π –∂–∏–∑–Ω–µ–Ω–Ω–æ–π —Å–∏—Ç—É–∞—Ü–∏–∏, –ª—é–¥—è–º —Å –æ–≥—Ä–∞–Ω–∏—á–µ–Ω–Ω—ã–º–∏ –≤–æ–∑–º–æ–∂–Ω–æ—Å—Ç—è–º–∏ –∑–¥–æ—Ä–æ–≤—å—è –∏ –∏–Ω–≤–∞–ª–∏–¥–∞–º, –∞ —Ç–∞–∫–∂–µ —á–ª–µ–Ω–∞–º –∏—Ö —Å–µ–º–µ–π ¬´–ë—É–º–µ—Ä–∞–Ω–≥ –¥–æ–±—Ä–∞¬ª –æ—Å—É—â–µ—Å—Ç–≤–ª—è–µ—Ç —Å–≤–æ—é –¥–µ—è—Ç–µ–ª—å–Ω–æ—Å—Ç—å –Ω–∞ —Ç–µ—Ä—Ä–∏—Ç–æ—Ä–∏–∏ –≥–æ—Ä–æ–¥–∞ –°–Ω–µ–∂–∏–Ω—Å–∫–∞ —Å 2014 –≥–æ–¥–∞.

–ù–µ—Å–º–æ—Ç—Ä—è –Ω–∞ —Å–µ—Ä—å—ë–∑–Ω—ã–µ –¥–∏–∞–≥–Ω–æ–∑—ã —Å–æ–±—Å—Ç–≤–µ–Ω–Ω—ã—Ö –¥–µ—Ç–µ–π, –Ω–µ—Ö–≤–∞—Ç–∫—É –¥–µ–Ω–µ–≥ –∏ –≤—Ä–µ–º–µ–Ω–∏, —Å–µ–º—å–∏ –≤–æ—Å–ø–∏—Ç—ã–≤–∞—é—â–∏–µ –¥–µ—Ç–µ–π-–∏–Ω–≤–∞–ª–∏–¥–æ–≤ –Ω–∞—à–ª–∏ –≤ —Å–µ–±–µ –º—É–∂–µ—Å—Ç–≤–æ –∏ —Å–∏–ª—ã, –æ–±—ä–µ–¥–∏–Ω–∏–ª–∏—Å—å –∏ —Å–æ–∑–¥–∞–ª–∏ –≤ –∑–∞–∫—Ä—ã—Ç–æ–º –≥–æ—Ä–æ–¥–µ –°–Ω–µ–∂–∏–Ω—Å–∫, —Å–Ω–∞—á–∞–ª–∞ –æ–±—â–µ—Å—Ç–≤–µ–Ω–Ω—É—é –æ—Ä–≥–∞–Ω–∏–∑–∞—Ü–∏—é, –∞ –≤ –º–∞—Ä—Ç–µ 2015 –≥–æ–¥–∞ - –æ—Ç–∫—Ä—ã–ª–∏ –¶–µ–Ω—Ç—Ä –∫–æ–º–ø–ª–µ–∫—Å–Ω–æ–π —Ä–µ–∞–±–∏–ª–∏—Ç–∞—Ü–∏–∏ –∏ —Å–æ—Ü–∏–∞–ª–∏–∑–∞—Ü–∏–∏ –¥–µ—Ç–µ–π —Å –æ–≥—Ä–∞–Ω–∏—á–µ–Ω–Ω—ã–º–∏ –≤–æ–∑–º–æ–∂–Ω–æ—Å—Ç—è–º–∏ –∑–¥–æ—Ä–æ–≤—å—è –∏ —Ä–µ–±—è—Ç —Å –∏–Ω–≤–∞–ª–∏–¥–Ω–æ—Å—Ç—å—é.","–°–Ω–µ–∂–∏–Ω—Å–∫–∞—è –≥–æ—Ä–æ–¥—Å–∫–∞—è –æ–±—â–µ—Å—Ç–≤–µ–Ω–Ω–∞—è –æ—Ä–≥–∞–Ω–∏–∑–∞—Ü–∏—è –ø–æ–º–æ—â–∏ –ª—é–¥—è–º, –Ω–∞—Ö–æ–¥—è—â–∏–º—Å—è –≤ —Ç—Ä—É–¥–Ω–æ–π –∂–∏–∑–Ω–µ–Ω–Ω–æ–π —Å–∏—Ç—É–∞—Ü–∏–∏, –ª—é–¥—è–º —Å –æ–≥—Ä–∞–Ω–∏—á–µ–Ω–Ω—ã–º–∏ –≤–æ–∑–º–æ–∂–Ω–æ—Å—Ç—è–º–∏ –∑–¥–æ—Ä–æ–≤—å—è –∏ –∏–Ω–≤–∞–ª–∏–¥–∞–º, –∞ —Ç–∞–∫–∂–µ —á–ª–µ–Ω–∞–º –∏—Ö —Å–µ–º–µ–π ¬´–ë—É–º–µ—Ä–∞–Ω–≥ –¥–æ–±—Ä–∞¬ª –æ—Å—É—â–µ—Å—Ç–≤–ª—è–µ—Ç —Å–≤–æ—é –¥–µ—è—Ç–µ–ª—å–Ω–æ—Å—Ç—å –Ω–∞ —Ç–µ—Ä—Ä–∏—Ç–æ—Ä–∏–∏ –≥–æ—Ä–æ–¥–∞ –°–Ω–µ–∂–∏–Ω—Å–∫–∞ —Å 2014 –≥–æ–¥–∞.

–ù–µ—Å–º–æ—Ç—Ä—è –Ω–∞ —Å–µ—Ä—å—ë–∑–Ω—ã–µ –¥–∏–∞–≥–Ω–æ–∑—ã —Å–æ–±—Å—Ç–≤–µ–Ω–Ω—ã—Ö –¥–µ—Ç–µ–π, –Ω–µ—Ö–≤–∞—Ç–∫—É –¥–µ–Ω–µ–≥ –∏ –≤—Ä–µ–º–µ–Ω–∏, —Å–µ–º—å–∏ –≤–æ—Å–ø–∏—Ç—ã–≤–∞—é—â–∏–µ –¥–µ—Ç–µ–π-–∏–Ω–≤–∞–ª–∏–¥–æ–≤ –Ω–∞—à–ª–∏ –≤ —Å–µ–±–µ –º—É–∂–µ—Å—Ç–≤–æ –∏ —Å–∏–ª—ã, –æ–±—ä–µ–¥–∏–Ω–∏–ª–∏—Å—å –∏ —Å–æ–∑–¥–∞–ª–∏ –≤ –∑–∞–∫—Ä—ã—Ç–æ–º –≥–æ—Ä–æ–¥–µ –°–Ω–µ–∂–∏–Ω—Å–∫, —Å–Ω–∞—á–∞–ª–∞ –æ–±—â–µ—Å—Ç–≤–µ–Ω–Ω—É—é –æ—Ä–≥–∞–Ω–∏–∑–∞—Ü–∏—é, –∞ –≤ –º–∞—Ä—Ç–µ 2015 –≥–æ–¥–∞ - –æ—Ç–∫—Ä—ã–ª–∏ –¶–µ–Ω—Ç—Ä –∫–æ–º–ø–ª–µ–∫—Å–Ω–æ–π —Ä–µ–∞–±–∏–ª–∏—Ç–∞—Ü–∏–∏ –∏ —Å–æ—Ü–∏–∞–ª–∏–∑–∞—Ü–∏–∏ –¥–µ—Ç–µ–π —Å –æ–≥—Ä–∞–Ω–∏—á–µ–Ω–Ω—ã–º–∏ –≤–æ–∑–º–æ–∂–Ω–æ—Å—Ç—è–º–∏ –∑–¥–æ—Ä–æ–≤—å—è –∏ —Ä–µ–±—è—Ç —Å –∏–Ω–≤–∞–ª–∏–¥–Ω–æ—Å—Ç—å—é.",+7 (900) 077-39-61,"–ö–æ–º—Å–æ–º–æ–ª—å—Å–∫–∞—è —É–ª., 4, –°–Ω–µ–∂–∏–Ω—Å–∫",56.080152,60.748289,,https://bumerang-dobra.org/,https://vk.com/bdsnz,,,2025-11-15 09:06:04.596537,2025-11-16 06:32:11.176954,1,1,10,19,0
18,–î–æ–±—Ä–æ–¶–µ–Ω—Ç—Ä –ø—Ä–∏ –°–û –ù–ö–û –ë—É–º–µ—Ä–∞–Ω–≥ –¥–æ–±—Ä–∞,"–ö—Ä–∞—Ç–∫–æ–µ –æ–ø–∏—Å–∞–Ω–∏–µ –Ω–∞—à–µ–π –¥–µ—è—Ç–µ–ª—å–Ω–æ—Å—Ç–∏üìú

üìå–¶–µ–ª—å:
- –ö–∞—á–µ—Å—Ç–≤–µ–Ω–Ω–æ–µ –¥–æ–ª–≥–æ–ª–µ—Ç–∏–µ ¬´—Å–µ—Ä–µ–±—Ä—è–Ω—ã—Ö¬ª –≤–æ–ª–æ–Ω—Ç–µ—Ä–æ–≤ —á–µ—Ä–µ–∑ —Å–æ—Ü–∏–∞–ª—å–Ω–æ –∑–Ω–∞—á–∏–º—É—é –¥–µ—è—Ç–µ–ª—å–Ω–æ—Å—Ç—å.

üìå–ó–∞–¥–∞—á–∏:
- –û–∫–∞–∑–∞–Ω–∏–µ —Ä–µ–∞–ª—å–Ω–æ–π –ø–æ–º–æ—â–∏ –ª—é–¥—è–º, –æ–∫–∞–∑–∞–≤—à–∏–º—Å—è –≤ —Ç—Ä—É–¥–Ω–æ–π –∂–∏–∑–Ω–µ–Ω–Ω–æ–π —Å–∏—Ç—É–∞—Ü–∏–∏.

- –ü—Ä–µ–¥–æ—Å—Ç–∞–≤–ª–µ–Ω–∏–µ –≥–æ—Ä–æ–∂–∞–Ω–∞–º (—Å–Ω–µ–∂–∏–Ω—Ü–∞–º) –≤–æ–∑–º–æ–∂–Ω–æ—Å—Ç–∏ —Ä–∞–∑–≤–∏–≤–∞—Ç—å –¥–æ–±—Ä–æ–≤–æ–ª—å—á–µ—Å–∫—É—é –∞–∫—Ç–∏–≤–Ω–æ—Å—Ç—å.

- –£—á–∞—Å—Ç–∏–µ (–∏/ –∏–ª–∏ –æ—Ä–≥–∞–Ω–∏–∑–∞—Ü–∏—è) –≤ –∞–∫—Ü–∏—è—Ö, —Ñ–æ—Ä–º–∞—Ö, –∫—Ä—É–≥–ª—ã—Ö —Å—Ç–æ–ª–∞—Ö –∏ –∏–Ω–æ–π –æ–±—â–µ—Å—Ç–≤–µ–Ω–Ω–æ–π –¥–µ—è—Ç–µ–ª—å–Ω–æ—Å—Ç–∏ –Ω–∞ —Ä–∞–∑–Ω—ã—Ö —É—Ä–æ–≤–Ω—è—Ö (–º–µ—Å—Ç–Ω—ã—Ö, —Ä–µ–≥–∏–æ–Ω–∞–ª—å–Ω—ã—Ö, –≤—Å–µ—Ä–æ—Å—Å–∏–π—Å–∫–∏—Ö).","–ö—Ä–∞—Ç–∫–æ–µ –æ–ø–∏—Å–∞–Ω–∏–µ –Ω–∞—à–µ–π –¥–µ—è—Ç–µ–ª—å–Ω–æ—Å—Ç–∏üìú

üìå–¶–µ–ª—å:
- –ö–∞—á–µ—Å—Ç–≤–µ–Ω–Ω–æ–µ –¥–æ–ª–≥–æ–ª–µ—Ç–∏–µ ¬´—Å–µ—Ä–µ–±—Ä—è–Ω—ã—Ö¬ª –≤–æ–ª–æ–Ω—Ç–µ—Ä–æ–≤ —á–µ—Ä–µ–∑ —Å–æ—Ü–∏–∞–ª—å–Ω–æ –∑–Ω–∞—á–∏–º—É—é –¥–µ—è—Ç–µ–ª—å–Ω–æ—Å—Ç—å.

üìå–ó–∞–¥–∞—á–∏:
- –û–∫–∞–∑–∞–Ω–∏–µ —Ä–µ–∞–ª—å–Ω–æ–π –ø–æ–º–æ—â–∏ –ª—é–¥—è–º, –æ–∫–∞–∑–∞–≤—à–∏–º—Å—è –≤ —Ç—Ä—É–¥–Ω–æ–π –∂–∏–∑–Ω–µ–Ω–Ω–æ–π —Å–∏—Ç—É–∞—Ü–∏–∏.

- –ü—Ä–µ–¥–æ—Å—Ç–∞–≤–ª–µ–Ω–∏–µ –≥–æ—Ä–æ–∂–∞–Ω–∞–º (—Å–Ω–µ–∂–∏–Ω—Ü–∞–º) –≤–æ–∑–º–æ–∂–Ω–æ—Å—Ç–∏ —Ä–∞–∑–≤–∏–≤–∞—Ç—å –¥–æ–±—Ä–æ–≤–æ–ª—å—á–µ—Å–∫—É—é –∞–∫—Ç–∏–≤–Ω–æ—Å—Ç—å.

- –£—á–∞—Å—Ç–∏–µ (–∏/ –∏–ª–∏ –æ—Ä–≥–∞–Ω–∏–∑–∞—Ü–∏—è) –≤ –∞–∫—Ü–∏—è—Ö, —Ñ–æ—Ä–º–∞—Ö, –∫—Ä—É–≥–ª—ã—Ö —Å—Ç–æ–ª–∞—Ö –∏ –∏–Ω–æ–π –æ–±—â–µ—Å—Ç–≤–µ–Ω–Ω–æ–π –¥–µ—è—Ç–µ–ª—å–Ω–æ—Å—Ç–∏ –Ω–∞ —Ä–∞–∑–Ω—ã—Ö —É—Ä–æ–≤–Ω—è—Ö (–º–µ—Å—Ç–Ω—ã—Ö, —Ä–µ–≥–∏–æ–Ω–∞–ª—å–Ω—ã—Ö, –≤—Å–µ—Ä–æ—Å—Å–∏–π—Å–∫–∏—Ö).",,"—É–ª–∏—Ü–∞ –°–≤–µ—Ä–¥–ª–æ–≤–∞, 46, –°–Ω–µ–∂–∏–Ω—Å–∫",56.078056,60.745556,,,https://vk.com/snzzhensovet,,,2025-11-15 09:09:36.119569,2025-11-16 06:32:37.938761,1,1,10,20,0
19,"–°–Ω–µ–∂–∏–Ω—Å–∫–∞—è –≥–æ—Ä–æ–¥—Å–∫–∞—è –æ–±—â–µ—Å—Ç–≤–µ–Ω–Ω–∞—è –æ—Ä–≥–∞–Ω–∏–∑–∞—Ü–∏—è ""–°–æ—é–∑ –∂–µ–Ω—â–∏–Ω –°–Ω–µ–∂–∏–Ω—Å–∫–∞""","–ü–æ–¥–¥–µ—Ä–∂–∫–∞ —Å–µ–º–µ–π —Å –¥–µ—Ç—å–º–∏: –º–Ω–æ–≥–æ–¥–µ—Ç–Ω—ã—Ö, –ø—Ä–∏–µ–º–Ω—ã—Ö —Å–µ–º–µ–π, —Å–µ–º–µ–π –≤ –≥–æ—Ä–æ–¥—Å–∫–∏—Ö –æ–±—â–µ–∂–∏—Ç–∏—è—Ö —á–µ—Ä–µ–∑ –°–µ–º–µ–π–Ω—ã–π –∫–ª—É–±, —Ä–∞–∑–≤–∏—Ç–∏–µ —Å–æ—Ü–∏–∞–ª—å–Ω–æ–≥–æ –ø—Ä–µ–¥–ø—Ä–∏–Ω–∏–º–∞—Ç–µ–ª—å—Å—Ç–≤–∞. –°–æ–¥–µ–π—Å—Ç–≤–∏–µ –ø–æ–≤—ã—à–µ–Ω–∏—é –∫–∞—á–µ—Å—Ç–≤–∞ –∂–∏–∑–Ω–∏ —Å—Ç–∞—Ä—à–µ–≥–æ –ø–æ–∫–æ–ª–µ–Ω–∏—è —á–µ—Ä–µ–∑ –ö–ª—É–± –æ–±—â–µ–Ω–∏—è —Å—Ç–∞—Ä—à–µ–≥–æ –ø–æ–∫–æ–ª–µ–Ω–∏—è.
–ü–æ–¥–¥–µ—Ä–∂–∫–∞ –æ–±—â–µ—Å—Ç–≤–µ–Ω–Ω–æ–≥–æ –¥–≤–∏–∂–µ–Ω–∏—è –ø–æ —Å–æ—Ö—Ä–∞–Ω–µ–Ω–∏—é –∏ —Ä–∞–∑–≤–∏—Ç–∏—é –Ω–∞—Ü–∏–æ–Ω–∞–ª—å–Ω—ã—Ö –∫—É–ª—å—Ç—É—Ä –≤ –°–Ω–µ–∂–∏–Ω—Å–∫–µ.
–ó–∞—â–∏—Ç–∞ –ø—Ä–∞–≤ –∂–µ–Ω—â–∏–Ω.

–¶–µ–ª–µ–≤–∞—è –∞—É–¥–∏—Ç–æ—Ä–∏—è:
–ñ–µ–Ω—â–∏–Ω—ã, —Å–µ–º—å–∏ —Å –¥–µ—Ç—å–º–∏, –ø–µ–Ω—Å–∏–æ–Ω–µ—Ä—ã","–ü–æ–¥–¥–µ—Ä–∂–∫–∞ —Å–µ–º–µ–π —Å –¥–µ—Ç—å–º–∏: –º–Ω–æ–≥–æ–¥–µ—Ç–Ω—ã—Ö, –ø—Ä–∏–µ–º–Ω—ã—Ö —Å–µ–º–µ–π, —Å–µ–º–µ–π –≤ –≥–æ—Ä–æ–¥—Å–∫–∏—Ö –æ–±—â–µ–∂–∏—Ç–∏—è—Ö —á–µ—Ä–µ–∑ –°–µ–º–µ–π–Ω—ã–π –∫–ª—É–±, —Ä–∞–∑–≤–∏—Ç–∏–µ —Å–æ—Ü–∏–∞–ª—å–Ω–æ–≥–æ –ø—Ä–µ–¥–ø—Ä–∏–Ω–∏–º–∞—Ç–µ–ª—å—Å—Ç–≤–∞. –°–æ–¥–µ–π—Å—Ç–≤–∏–µ –ø–æ–≤—ã—à–µ–Ω–∏—é –∫–∞—á–µ—Å—Ç–≤–∞ –∂–∏–∑–Ω–∏ —Å—Ç–∞—Ä—à–µ–≥–æ –ø–æ–∫–æ–ª–µ–Ω–∏—è —á–µ—Ä–µ–∑ –ö–ª—É–± –æ–±—â–µ–Ω–∏—è —Å—Ç–∞—Ä—à–µ–≥–æ –ø–æ–∫–æ–ª–µ–Ω–∏—è.
–ü–æ–¥–¥–µ—Ä–∂–∫–∞ –æ–±—â–µ—Å—Ç–≤–µ–Ω–Ω–æ–≥–æ –¥–≤–∏–∂–µ–Ω–∏—è –ø–æ —Å–æ—Ö—Ä–∞–Ω–µ–Ω–∏—é –∏ —Ä–∞–∑–≤–∏—Ç–∏—é –Ω–∞—Ü–∏–æ–Ω–∞–ª—å–Ω—ã—Ö –∫—É–ª—å—Ç—É—Ä –≤ –°–Ω–µ–∂–∏–Ω—Å–∫–µ.
–ó–∞—â–∏—Ç–∞ –ø—Ä–∞–≤ –∂–µ–Ω—â–∏–Ω.

–¶–µ–ª–µ–≤–∞—è –∞—É–¥–∏—Ç–æ—Ä–∏—è:
–ñ–µ–Ω—â–∏–Ω—ã, —Å–µ–º—å–∏ —Å –¥–µ—Ç—å–º–∏, –ø–µ–Ω—Å–∏–æ–Ω–µ—Ä—ã",+7 (951) 447-71-01,,NULL,NULL,,https://women-snz.ru/,https://vk.com/sovetgensnz?from=groups,,,2025-11-15 09:12:09.591180,2025-11-15 09:12:09.591189,1,1,10,21,0
20,–ë–§–ú–° –ù–æ–≤–æ–µ –£—Å–æ–ª—å–µ,"–ê–∫—Ç–∏–≤–∏–∑–∞—Ü–∏—è/—Ä–∞–∑–≤–∏—Ç–∏–µ –º–µ—Å—Ç–Ω–æ–≥–æ —Å–æ–æ–±—â–µ—Å—Ç–≤–∞ –¥–ª—è —É–ª—É—á—à–µ–Ω–∏—è –∂–∏–∑–Ω–∏ –≤ –≥–æ—Ä–æ–¥–µ

–¶–µ–ª–µ–≤–∞—è –∞—É–¥–∏—Ç–æ—Ä–∏—è:
–ù–µ—Ä–∞–≤–Ω–æ–¥—É—à–Ω—ã–µ –∂–∏—Ç–µ–ª–∏, –∂–µ–Ω—â–∏–Ω—ã 40+, —Å–µ–º—å–∏ —Å –¥–µ—Ç—å–º–∏","–ê–∫—Ç–∏–≤–∏–∑–∞—Ü–∏—è/—Ä–∞–∑–≤–∏—Ç–∏–µ –º–µ—Å—Ç–Ω–æ–≥–æ —Å–æ–æ–±—â–µ—Å—Ç–≤–∞ –¥–ª—è —É–ª—É—á—à–µ–Ω–∏—è –∂–∏–∑–Ω–∏ –≤ –≥–æ—Ä–æ–¥–µ

–¶–µ–ª–µ–≤–∞—è –∞—É–¥–∏—Ç–æ—Ä–∏—è:
–ù–µ—Ä–∞–≤–Ω–æ–¥—É—à–Ω—ã–µ –∂–∏—Ç–µ–ª–∏, –∂–µ–Ω—â–∏–Ω—ã 40+, —Å–µ–º—å–∏ —Å –¥–µ—Ç—å–º–∏",,,NULL,NULL,,,https://vk.com/club166583301,,,2025-11-15 09:14:06.779139,2025-11-15 09:14:06.779147,1,1,11,22,0
21,–£–ì–ú–û –ò–û–†–û–û–û–û –í–û–ò,"–û—Ä–≥–∞–Ω–∏–∑–∞—Ü–∏—è —Ä–∞–±–æ—Ç–∞–µ—Ç –ø–æ –ø–æ–¥–¥–µ—Ä–∂–∫–µ –ª—é–¥–µ–π —Å –∏–Ω–≤–∞–ª–∏–¥–Ω–æ—Å—Ç—å—é –∏ —Ä–∞–∑–≤–∏—Ç–∏—é –∞–¥–∞–ø—Ç–∏–≤–Ω–æ–π —Ñ–∏–∑–∏—á–µ—Å–∫–æ–π –∫—É–ª—å—Ç—É—Ä—ã –∏ —Å–ø–æ—Ä—Ç–∞ –≤ –≥–æ—Ä–æ–¥–µ. –ì—Ä—É–ø–ø–∞ –∏–∑—É—á–∞–µ—Ç –±–æ–ª–µ–µ 25 —á–µ–ª–æ–≤–µ–∫ —Ä–∞–∑–ª–∏—á–Ω—ã—Ö –Ω–æ–∑–æ–ª–æ–≥–∏—á–µ—Å–∫–∏—Ö –≥—Ä—É–ø–ø.

–¶–µ–ª–µ–≤–∞—è –∞—É–¥–∏—Ç–æ—Ä–∏—è:
–õ—é–¥–∏ —Å –∏–Ω–≤–∞–ª–∏–¥–Ω–æ—Å—Ç—å—é –≤—Å–µ—Ö –≤–æ–∑—Ä–∞—Å—Ç–æ–≤","–û—Ä–≥–∞–Ω–∏–∑–∞—Ü–∏—è —Ä–∞–±–æ—Ç–∞–µ—Ç –ø–æ –ø–æ–¥–¥–µ—Ä–∂–∫–µ –ª—é–¥–µ–π —Å –∏–Ω–≤–∞–ª–∏–¥–Ω–æ—Å—Ç—å—é –∏ —Ä–∞–∑–≤–∏—Ç–∏—é –∞–¥–∞–ø—Ç–∏–≤–Ω–æ–π —Ñ–∏–∑–∏—á–µ—Å–∫–æ–π –∫—É–ª—å—Ç—É—Ä—ã –∏ —Å–ø–æ—Ä—Ç–∞ –≤ –≥–æ—Ä–æ–¥–µ. –ì—Ä—É–ø–ø–∞ –∏–∑—É—á–∞–µ—Ç –±–æ–ª–µ–µ 25 —á–µ–ª–æ–≤–µ–∫ —Ä–∞–∑–ª–∏—á–Ω—ã—Ö –Ω–æ–∑–æ–ª–æ–≥–∏—á–µ—Å–∫–∏—Ö –≥—Ä—É–ø–ø.

–¶–µ–ª–µ–≤–∞—è –∞—É–¥–∏—Ç–æ—Ä–∏—è:
–õ—é–¥–∏ —Å –∏–Ω–≤–∞–ª–∏–¥–Ω–æ—Å—Ç—å—é –≤—Å–µ—Ö –≤–æ–∑—Ä–∞—Å—Ç–æ–≤",,,NULL,NULL,,,,,,2025-11-15 09:15:54.994875,2025-11-15 09:15:54.994885,1,1,11,23,0
22,–ê–ù–û ¬´–¢–≤–µ—Ä–¥—ã–º–∏ —à–∞–≥–∞–º–∏¬ª,"–ê–≤—Ç–æ–Ω–æ–º–Ω–∞—è –Ω–µ–∫–æ–º–º–µ—Ä—á–µ—Å–∫–∞—è –æ—Ä–≥–∞–Ω–∏–∑–∞—Ü–∏—è –ø–æ–º–æ—â–∏ –¥–µ—Ç—è–º —Å –æ–≥—Ä–∞–Ω–∏—á–µ–Ω–Ω—ã–º–∏ –≤–æ–∑–º–æ–∂–Ω–æ—Å—Ç—è–º–∏ –∑–¥–æ—Ä–æ–≤—å—è, –∏–Ω–≤–∞–ª–∏–¥–Ω–æ—Å—Ç—å—é –∏ –∏—Ö —Å–µ–º—å—è–º.","–ê–≤—Ç–æ–Ω–æ–º–Ω–∞—è –Ω–µ–∫–æ–º–º–µ—Ä—á–µ—Å–∫–∞—è –æ—Ä–≥–∞–Ω–∏–∑–∞—Ü–∏—è –ø–æ–º–æ—â–∏ –¥–µ—Ç—è–º —Å –æ–≥—Ä–∞–Ω–∏—á–µ–Ω–Ω—ã–º–∏ –≤–æ–∑–º–æ–∂–Ω–æ—Å—Ç—è–º–∏ –∑–¥–æ—Ä–æ–≤—å—è, –∏–Ω–≤–∞–ª–∏–¥–Ω–æ—Å—Ç—å—é –∏ –∏—Ö —Å–µ–º—å—è–º.",,"–ø—Ä–æ—Å–ø–µ–∫—Ç –õ–µ–Ω–∏–Ω–∞ 37, 2 –ø–æ–¥—ä–µ–∑–¥",55.766957,60.695319,,,https://vk.com/club207076122,,,2025-11-15 09:18:16.621162,2025-11-16 06:34:55.300594,1,1,12,24,0
